{"type":"FeatureCollection","features":[{"type":"Feature","properties":{"type":"meridian","value":-180},"geometry":{"type":"LineString","coordinates":[[-180,-90],[-180,-89],[-180,-88],[-180,-87],[-180,-86],[-180,-85],[-180,-84],[-180,-83],[-180,-82],[-180,-81],[-180,-80],[-180,-79],[-180,-78],[-180,-77],[-180,-76],[-180,-75],[-180,-74],[-180,-73],[-180,-72],[-180,-71],[-180,-70],[-180,-69],[-180,-68],[-180,-67],[-180,-66],[-180,-65],[-180,-64],[-180,-63],[-180,-62],[-180,-61],[-180,-60],[-180,-59],[-180,-58],[-180,-57],[-180,-56],[-180,-55],[-180,-54],[-180,-53],[-180,-52],[-180,-51],[-180,-50],[-180,-49],[-180,-48],[-180,-47],[-180,-46],[-180,-45],[-180,-44],[-180,-43],[-180,-42],[-180,-41],[-180,-40],[-180,-39],[-180,-38],[-180,-37],[-180,-36],[-180,-35],[-180,-34],[-180,-33],[-180,-32],[-180,-31],[-180,-30],[-180,-29],[-180,-28],[-180,-27],[-180,-26],[-180,-25],[-180,-24],[-180,-23],[-180,-22],[-180,-21],[-180,-20],[-180,-19],[-180,-18],[-180,-17],[-180,-16],[-180,-15],[-180,-14],[-180,-13],[-180,-12],[-180,-11],[-180,-10],[-180,-9],[-180,-8],[-180,-7],[-180,-6],[-180,-5],[-180,-4],[-180,-3],[-180,-2],[-180,-1],[-180,0],[-180,1],[-180,2],[-180,3],[-180,4],[-180,5],[-180,6],[-180,7],[-180,8],[-180,9],[-180,10],[-180,11],[-180,12],[-180,13],[-180,14],[-180,15],[-180,16],[-180,17],[-180,18],[-180,19],[-180,20],[-180,21],[-180,22],[-180,23],[-180,24],[-180,25],[-180,26],[-180,27],[-180,28],[-180,29],[-180,30],[-180,31],[-180,32],[-180,33],[-180,34],[-180,35],[-180,36],[-180,37],[-180,38],[-180,39],[-180,40],[-180,41],[-180,42],[-180,43],[-180,44],[-180,45],[-180,46],[-180,47],[-180,48],[-180,49],[-180,50],[-180,51],[-180,52],[-180,53],[-180,54],[-180,55],[-180,56],[-180,57],[-180,58],[-180,59],[-180,60],[-180,61],[-180,62],[-180,63],[-180,64],[-180,65],[-180,66],[-180,67],[-180,68],[-180,69],[-180,70],[-180,71],[-180,72],[-180,73],[-180,74],[-180,75],[-180,76],[-180,77],[-180,78],[-180,79],[-180,80],[-180,81],[-180,82],[-180,83],[-180,84],[-180,85],[-180,86],[-180,87],[-180,88],[-180,89],[-180,90]]}},{"type":"Feature","properties":{"type":"meridian","value":-165},"geometry":{"type":"LineString","coordinates":[[-165,-90],[-165,-89],[-165,-88],[-165,-87],[-165,-86],[-165,-85],[-165,-84],[-165,-83],[-165,-82],[-165,-81],[-165,-80],[-165,-79],[-165,-78],[-165,-77],[-165,-76],[-165,-75],[-165,-74],[-165,-73],[-165,-72],[-165,-71],[-165,-70],[-165,-69],[-165,-68],[-165,-67],[-165,-66],[-165,-65],[-165,-64],[-165,-63],[-165,-62],[-165,-61],[-165,-60],[-165,-59],[-165,-58],[-165,-57],[-165,-56],[-165,-55],[-165,-54],[-165,-53],[-165,-52],[-165,-51],[-165,-50],[-165,-49],[-165,-48],[-165,-47],[-165,-46],[-165,-45],[-165,-44],[-165,-43],[-165,-42],[-165,-41],[-165,-40],[-165,-39],[-165,-38],[-165,-37],[-165,-36],[-165,-35],[-165,-34],[-165,-33],[-165,-32],[-165,-31],[-165,-30],[-165,-29],[-165,-28],[-165,-27],[-165,-26],[-165,-25],[-165,-24],[-165,-23],[-165,-22],[-165,-21],[-165,-20],[-165,-19],[-165,-18],[-165,-17],[-165,-16],[-165,-15],[-165,-14],[-165,-13],[-165,-12],[-165,-11],[-165,-10],[-165,-9],[-165,-8],[-165,-7],[-165,-6],[-165,-5],[-165,-4],[-165,-3],[-165,-2],[-165,-1],[-165,0],[-165,1],[-165,2],[-165,3],[-165,4],[-165,5],[-165,6],[-165,7],[-165,8],[-165,9],[-165,10],[-165,11],[-165,12],[-165,13],[-165,14],[-165,15],[-165,16],[-165,17],[-165,18],[-165,19],[-165,20],[-165,21],[-165,22],[-165,23],[-165,24],[-165,25],[-165,26],[-165,27],[-165,28],[-165,29],[-165,30],[-165,31],[-165,32],[-165,33],[-165,34],[-165,35],[-165,36],[-165,37],[-165,38],[-165,39],[-165,40],[-165,41],[-165,42],[-165,43],[-165,44],[-165,45],[-165,46],[-165,47],[-165,48],[-165,49],[-165,50],[-165,51],[-165,52],[-165,53],[-165,54],[-165,55],[-165,56],[-165,57],[-165,58],[-165,59],[-165,60],[-165,61],[-165,62],[-165,63],[-165,64],[-165,65],[-165,66],[-165,67],[-165,68],[-165,69],[-165,70],[-165,71],[-165,72],[-165,73],[-165,74],[-165,75],[-165,76],[-165,77],[-165,78],[-165,79],[-165,80],[-165,81],[-165,82],[-165,83],[-165,84],[-165,85],[-165,86],[-165,87],[-165,88],[-165,89],[-165,90]]}},{"type":"Feature","properties":{"type":"meridian","value":-150},"geometry":{"type":"LineString","coordinates":[[-150,-90],[-150,-89],[-150,-88],[-150,-87],[-150,-86],[-150,-85],[-150,-84],[-150,-83],[-150,-82],[-150,-81],[-150,-80],[-150,-79],[-150,-78],[-150,-77],[-150,-76],[-150,-75],[-150,-74],[-150,-73],[-150,-72],[-150,-71],[-150,-70],[-150,-69],[-150,-68],[-150,-67],[-150,-66],[-150,-65],[-150,-64],[-150,-63],[-150,-62],[-150,-61],[-150,-60],[-150,-59],[-150,-58],[-150,-57],[-150,-56],[-150,-55],[-150,-54],[-150,-53],[-150,-52],[-150,-51],[-150,-50],[-150,-49],[-150,-48],[-150,-47],[-150,-46],[-150,-45],[-150,-44],[-150,-43],[-150,-42],[-150,-41],[-150,-40],[-150,-39],[-150,-38],[-150,-37],[-150,-36],[-150,-35],[-150,-34],[-150,-33],[-150,-32],[-150,-31],[-150,-30],[-150,-29],[-150,-28],[-150,-27],[-150,-26],[-150,-25],[-150,-24],[-150,-23],[-150,-22],[-150,-21],[-150,-20],[-150,-19],[-150,-18],[-150,-17],[-150,-16],[-150,-15],[-150,-14],[-150,-13],[-150,-12],[-150,-11],[-150,-10],[-150,-9],[-150,-8],[-150,-7],[-150,-6],[-150,-5],[-150,-4],[-150,-3],[-150,-2],[-150,-1],[-150,0],[-150,1],[-150,2],[-150,3],[-150,4],[-150,5],[-150,6],[-150,7],[-150,8],[-150,9],[-150,10],[-150,11],[-150,12],[-150,13],[-150,14],[-150,15],[-150,16],[-150,17],[-150,18],[-150,19],[-150,20],[-150,21],[-150,22],[-150,23],[-150,24],[-150,25],[-150,26],[-150,27],[-150,28],[-150,29],[-150,30],[-150,31],[-150,32],[-150,33],[-150,34],[-150,35],[-150,36],[-150,37],[-150,38],[-150,39],[-150,40],[-150,41],[-150,42],[-150,43],[-150,44],[-150,45],[-150,46],[-150,47],[-150,48],[-150,49],[-150,50],[-150,51],[-150,52],[-150,53],[-150,54],[-150,55],[-150,56],[-150,57],[-150,58],[-150,59],[-150,60],[-150,61],[-150,62],[-150,63],[-150,64],[-150,65],[-150,66],[-150,67],[-150,68],[-150,69],[-150,70],[-150,71],[-150,72],[-150,73],[-150,74],[-150,75],[-150,76],[-150,77],[-150,78],[-150,79],[-150,80],[-150,81],[-150,82],[-150,83],[-150,84],[-150,85],[-150,86],[-150,87],[-150,88],[-150,89],[-150,90]]}},{"type":"Feature","properties":{"type":"meridian","value":-135},"geometry":{"type":"LineString","coordinates":[[-135,-90],[-135,-89],[-135,-88],[-135,-87],[-135,-86],[-135,-85],[-135,-84],[-135,-83],[-135,-82],[-135,-81],[-135,-80],[-135,-79],[-135,-78],[-135,-77],[-135,-76],[-135,-75],[-135,-74],[-135,-73],[-135,-72],[-135,-71],[-135,-70],[-135,-69],[-135,-68],[-135,-67],[-135,-66],[-135,-65],[-135,-64],[-135,-63],[-135,-62],[-135,-61],[-135,-60],[-135,-59],[-135,-58],[-135,-57],[-135,-56],[-135,-55],[-135,-54],[-135,-53],[-135,-52],[-135,-51],[-135,-50],[-135,-49],[-135,-48],[-135,-47],[-135,-46],[-135,-45],[-135,-44],[-135,-43],[-135,-42],[-135,-41],[-135,-40],[-135,-39],[-135,-38],[-135,-37],[-135,-36],[-135,-35],[-135,-34],[-135,-33],[-135,-32],[-135,-31],[-135,-30],[-135,-29],[-135,-28],[-135,-27],[-135,-26],[-135,-25],[-135,-24],[-135,-23],[-135,-22],[-135,-21],[-135,-20],[-135,-19],[-135,-18],[-135,-17],[-135,-16],[-135,-15],[-135,-14],[-135,-13],[-135,-12],[-135,-11],[-135,-10],[-135,-9],[-135,-8],[-135,-7],[-135,-6],[-135,-5],[-135,-4],[-135,-3],[-135,-2],[-135,-1],[-135,0],[-135,1],[-135,2],[-135,3],[-135,4],[-135,5],[-135,6],[-135,7],[-135,8],[-135,9],[-135,10],[-135,11],[-135,12],[-135,13],[-135,14],[-135,15],[-135,16],[-135,17],[-135,18],[-135,19],[-135,20],[-135,21],[-135,22],[-135,23],[-135,24],[-135,25],[-135,26],[-135,27],[-135,28],[-135,29],[-135,30],[-135,31],[-135,32],[-135,33],[-135,34],[-135,35],[-135,36],[-135,37],[-135,38],[-135,39],[-135,40],[-135,41],[-135,42],[-135,43],[-135,44],[-135,45],[-135,46],[-135,47],[-135,48],[-135,49],[-135,50],[-135,51],[-135,52],[-135,53],[-135,54],[-135,55],[-135,56],[-135,57],[-135,58],[-135,59],[-135,60],[-135,61],[-135,62],[-135,63],[-135,64],[-135,65],[-135,66],[-135,67],[-135,68],[-135,69],[-135,70],[-135,71],[-135,72],[-135,73],[-135,74],[-135,75],[-135,76],[-135,77],[-135,78],[-135,79],[-135,80],[-135,81],[-135,82],[-135,83],[-135,84],[-135,85],[-135,86],[-135,87],[-135,88],[-135,89],[-135,90]]}},{"type":"Feature","properties":{"type":"meridian","value":-120},"geometry":{"type":"LineString","coordinates":[[-120,-90],[-120,-89],[-120,-88],[-120,-87],[-120,-86],[-120,-85],[-120,-84],[-120,-83],[-120,-82],[-120,-81],[-120,-80],[-120,-79],[-120,-78],[-120,-77],[-120,-76],[-120,-75],[-120,-74],[-120,-73],[-120,-72],[-120,-71],[-120,-70],[-120,-69],[-120,-68],[-120,-67],[-120,-66],[-120,-65],[-120,-64],[-120,-63],[-120,-62],[-120,-61],[-120,-60],[-120,-59],[-120,-58],[-120,-57],[-120,-56],[-120,-55],[-120,-54],[-120,-53],[-120,-52],[-120,-51],[-120,-50],[-120,-49],[-120,-48],[-120,-47],[-120,-46],[-120,-45],[-120,-44],[-120,-43],[-120,-42],[-120,-41],[-120,-40],[-120,-39],[-120,-38],[-120,-37],[-120,-36],[-120,-35],[-120,-34],[-120,-33],[-120,-32],[-120,-31],[-120,-30],[-120,-29],[-120,-28],[-120,-27],[-120,-26],[-120,-25],[-120,-24],[-120,-23],[-120,-22],[-120,-21],[-120,-20],[-120,-19],[-120,-18],[-120,-17],[-120,-16],[-120,-15],[-120,-14],[-120,-13],[-120,-12],[-120,-11],[-120,-10],[-120,-9],[-120,-8],[-120,-7],[-120,-6],[-120,-5],[-120,-4],[-120,-3],[-120,-2],[-120,-1],[-120,0],[-120,1],[-120,2],[-120,3],[-120,4],[-120,5],[-120,6],[-120,7],[-120,8],[-120,9],[-120,10],[-120,11],[-120,12],[-120,13],[-120,14],[-120,15],[-120,16],[-120,17],[-120,18],[-120,19],[-120,20],[-120,21],[-120,22],[-120,23],[-120,24],[-120,25],[-120,26],[-120,27],[-120,28],[-120,29],[-120,30],[-120,31],[-120,32],[-120,33],[-120,34],[-120,35],[-120,36],[-120,37],[-120,38],[-120,39],[-120,40],[-120,41],[-120,42],[-120,43],[-120,44],[-120,45],[-120,46],[-120,47],[-120,48],[-120,49],[-120,50],[-120,51],[-120,52],[-120,53],[-120,54],[-120,55],[-120,56],[-120,57],[-120,58],[-120,59],[-120,60],[-120,61],[-120,62],[-120,63],[-120,64],[-120,65],[-120,66],[-120,67],[-120,68],[-120,69],[-120,70],[-120,71],[-120,72],[-120,73],[-120,74],[-120,75],[-120,76],[-120,77],[-120,78],[-120,79],[-120,80],[-120,81],[-120,82],[-120,83],[-120,84],[-120,85],[-120,86],[-120,87],[-120,88],[-120,89],[-120,90]]}},{"type":"Feature","properties":{"type":"meridian","value":-105},"geometry":{"type":"LineString","coordinates":[[-105,-90],[-105,-89],[-105,-88],[-105,-87],[-105,-86],[-105,-85],[-105,-84],[-105,-83],[-105,-82],[-105,-81],[-105,-80],[-105,-79],[-105,-78],[-105,-77],[-105,-76],[-105,-75],[-105,-74],[-105,-73],[-105,-72],[-105,-71],[-105,-70],[-105,-69],[-105,-68],[-105,-67],[-105,-66],[-105,-65],[-105,-64],[-105,-63],[-105,-62],[-105,-61],[-105,-60],[-105,-59],[-105,-58],[-105,-57],[-105,-56],[-105,-55],[-105,-54],[-105,-53],[-105,-52],[-105,-51],[-105,-50],[-105,-49],[-105,-48],[-105,-47],[-105,-46],[-105,-45],[-105,-44],[-105,-43],[-105,-42],[-105,-41],[-105,-40],[-105,-39],[-105,-38],[-105,-37],[-105,-36],[-105,-35],[-105,-34],[-105,-33],[-105,-32],[-105,-31],[-105,-30],[-105,-29],[-105,-28],[-105,-27],[-105,-26],[-105,-25],[-105,-24],[-105,-23],[-105,-22],[-105,-21],[-105,-20],[-105,-19],[-105,-18],[-105,-17],[-105,-16],[-105,-15],[-105,-14],[-105,-13],[-105,-12],[-105,-11],[-105,-10],[-105,-9],[-105,-8],[-105,-7],[-105,-6],[-105,-5],[-105,-4],[-105,-3],[-105,-2],[-105,-1],[-105,0],[-105,1],[-105,2],[-105,3],[-105,4],[-105,5],[-105,6],[-105,7],[-105,8],[-105,9],[-105,10],[-105,11],[-105,12],[-105,13],[-105,14],[-105,15],[-105,16],[-105,17],[-105,18],[-105,19],[-105,20],[-105,21],[-105,22],[-105,23],[-105,24],[-105,25],[-105,26],[-105,27],[-105,28],[-105,29],[-105,30],[-105,31],[-105,32],[-105,33],[-105,34],[-105,35],[-105,36],[-105,37],[-105,38],[-105,39],[-105,40],[-105,41],[-105,42],[-105,43],[-105,44],[-105,45],[-105,46],[-105,47],[-105,48],[-105,49],[-105,50],[-105,51],[-105,52],[-105,53],[-105,54],[-105,55],[-105,56],[-105,57],[-105,58],[-105,59],[-105,60],[-105,61],[-105,62],[-105,63],[-105,64],[-105,65],[-105,66],[-105,67],[-105,68],[-105,69],[-105,70],[-105,71],[-105,72],[-105,73],[-105,74],[-105,75],[-105,76],[-105,77],[-105,78],[-105,79],[-105,80],[-105,81],[-105,82],[-105,83],[-105,84],[-105,85],[-105,86],[-105,87],[-105,88],[-105,89],[-105,90]]}},{"type":"Feature","properties":{"type":"meridian","value":-90},"geometry":{"type":"LineString","coordinates":[[-90,-90],[-90,-89],[-90,-88],[-90,-87],[-90,-86],[-90,-85],[-90,-84],[-90,-83],[-90,-82],[-90,-81],[-90,-80],[-90,-79],[-90,-78],[-90,-77],[-90,-76],[-90,-75],[-90,-74],[-90,-73],[-90,-72],[-90,-71],[-90,-70],[-90,-69],[-90,-68],[-90,-67],[-90,-66],[-90,-65],[-90,-64],[-90,-63],[-90,-62],[-90,-61],[-90,-60],[-90,-59],[-90,-58],[-90,-57],[-90,-56],[-90,-55],[-90,-54],[-90,-53],[-90,-52],[-90,-51],[-90,-50],[-90,-49],[-90,-48],[-90,-47],[-90,-46],[-90,-45],[-90,-44],[-90,-43],[-90,-42],[-90,-41],[-90,-40],[-90,-39],[-90,-38],[-90,-37],[-90,-36],[-90,-35],[-90,-34],[-90,-33],[-90,-32],[-90,-31],[-90,-30],[-90,-29],[-90,-28],[-90,-27],[-90,-26],[-90,-25],[-90,-24],[-90,-23],[-90,-22],[-90,-21],[-90,-20],[-90,-19],[-90,-18],[-90,-17],[-90,-16],[-90,-15],[-90,-14],[-90,-13],[-90,-12],[-90,-11],[-90,-10],[-90,-9],[-90,-8],[-90,-7],[-90,-6],[-90,-5],[-90,-4],[-90,-3],[-90,-2],[-90,-1],[-90,0],[-90,1],[-90,2],[-90,3],[-90,4],[-90,5],[-90,6],[-90,7],[-90,8],[-90,9],[-90,10],[-90,11],[-90,12],[-90,13],[-90,14],[-90,15],[-90,16],[-90,17],[-90,18],[-90,19],[-90,20],[-90,21],[-90,22],[-90,23],[-90,24],[-90,25],[-90,26],[-90,27],[-90,28],[-90,29],[-90,30],[-90,31],[-90,32],[-90,33],[-90,34],[-90,35],[-90,36],[-90,37],[-90,38],[-90,39],[-90,40],[-90,41],[-90,42],[-90,43],[-90,44],[-90,45],[-90,46],[-90,47],[-90,48],[-90,49],[-90,50],[-90,51],[-90,52],[-90,53],[-90,54],[-90,55],[-90,56],[-90,57],[-90,58],[-90,59],[-90,60],[-90,61],[-90,62],[-90,63],[-90,64],[-90,65],[-90,66],[-90,67],[-90,68],[-90,69],[-90,70],[-90,71],[-90,72],[-90,73],[-90,74],[-90,75],[-90,76],[-90,77],[-90,78],[-90,79],[-90,80],[-90,81],[-90,82],[-90,83],[-90,84],[-90,85],[-90,86],[-90,87],[-90,88],[-90,89],[-90,90]]}},{"type":"Feature","properties":{"type":"meridian","value":-75},"geometry":{"type":"LineString","coordinates":[[-75,-90],[-75,-89],[-75,-88],[-75,-87],[-75,-86],[-75,-85],[-75,-84],[-75,-83],[-75,-82],[-75,-81],[-75,-80],[-75,-79],[-75,-78],[-75,-77],[-75,-76],[-75,-75],[-75,-74],[-75,-73],[-75,-72],[-75,-71],[-75,-70],[-75,-69],[-75,-68],[-75,-67],[-75,-66],[-75,-65],[-75,-64],[-75,-63],[-75,-62],[-75,-61],[-75,-60],[-75,-59],[-75,-58],[-75,-57],[-75,-56],[-75,-55],[-75,-54],[-75,-53],[-75,-52],[-75,-51],[-75,-50],[-75,-49],[-75,-48],[-75,-47],[-75,-46],[-75,-45],[-75,-44],[-75,-43],[-75,-42],[-75,-41],[-75,-40],[-75,-39],[-75,-38],[-75,-37],[-75,-36],[-75,-35],[-75,-34],[-75,-33],[-75,-32],[-75,-31],[-75,-30],[-75,-29],[-75,-28],[-75,-27],[-75,-26],[-75,-25],[-75,-24],[-75,-23],[-75,-22],[-75,-21],[-75,-20],[-75,-19],[-75,-18],[-75,-17],[-75,-16],[-75,-15],[-75,-14],[-75,-13],[-75,-12],[-75,-11],[-75,-10],[-75,-9],[-75,-8],[-75,-7],[-75,-6],[-75,-5],[-75,-4],[-75,-3],[-75,-2],[-75,-1],[-75,0],[-75,1],[-75,2],[-75,3],[-75,4],[-75,5],[-75,6],[-75,7],[-75,8],[-75,9],[-75,10],[-75,11],[-75,12],[-75,13],[-75,14],[-75,15],[-75,16],[-75,17],[-75,18],[-75,19],[-75,20],[-75,21],[-75,22],[-75,23],[-75,24],[-75,25],[-75,26],[-75,27],[-75,28],[-75,29],[-75,30],[-75,31],[-75,32],[-75,33],[-75,34],[-75,35],[-75,36],[-75,37],[-75,38],[-75,39],[-75,40],[-75,41],[-75,42],[-75,43],[-75,44],[-75,45],[-75,46],[-75,47],[-75,48],[-75,49],[-75,50],[-75,51],[-75,52],[-75,53],[-75,54],[-75,55],[-75,56],[-75,57],[-75,58],[-75,59],[-75,60],[-75,61],[-75,62],[-75,63],[-75,64],[-75,65],[-75,66],[-75,67],[-75,68],[-75,69],[-75,70],[-75,71],[-75,72],[-75,73],[-75,74],[-75,75],[-75,76],[-75,77],[-75,78],[-75,79],[-75,80],[-75,81],[-75,82],[-75,83],[-75,84],[-75,85],[-75,86],[-75,87],[-75,88],[-75,89],[-75,90]]}},{"type":"Feature","properties":{"type":"meridian","value":-60},"geometry":{"type":"LineString","coordinates":[[-60,-90],[-60,-89],[-60,-88],[-60,-87],[-60,-86],[-60,-85],[-60,-84],[-60,-83],[-60,-82],[-60,-81],[-60,-80],[-60,-79],[-60,-78],[-60,-77],[-60,-76],[-60,-75],[-60,-74],[-60,-73],[-60,-72],[-60,-71],[-60,-70],[-60,-69],[-60,-68],[-60,-67],[-60,-66],[-60,-65],[-60,-64],[-60,-63],[-60,-62],[-60,-61],[-60,-60],[-60,-59],[-60,-58],[-60,-57],[-60,-56],[-60,-55],[-60,-54],[-60,-53],[-60,-52],[-60,-51],[-60,-50],[-60,-49],[-60,-48],[-60,-47],[-60,-46],[-60,-45],[-60,-44],[-60,-43],[-60,-42],[-60,-41],[-60,-40],[-60,-39],[-60,-38],[-60,-37],[-60,-36],[-60,-35],[-60,-34],[-60,-33],[-60,-32],[-60,-31],[-60,-30],[-60,-29],[-60,-28],[-60,-27],[-60,-26],[-60,-25],[-60,-24],[-60,-23],[-60,-22],[-60,-21],[-60,-20],[-60,-19],[-60,-18],[-60,-17],[-60,-16],[-60,-15],[-60,-14],[-60,-13],[-60,-12],[-60,-11],[-60,-10],[-60,-9],[-60,-8],[-60,-7],[-60,-6],[-60,-5],[-60,-4],[-60,-3],[-60,-2],[-60,-1],[-60,0],[-60,1],[-60,2],[-60,3],[-60,4],[-60,5],[-60,6],[-60,7],[-60,8],[-60,9],[-60,10],[-60,11],[-60,12],[-60,13],[-60,14],[-60,15],[-60,16],[-60,17],[-60,18],[-60,19],[-60,20],[-60,21],[-60,22],[-60,23],[-60,24],[-60,25],[-60,26],[-60,27],[-60,28],[-60,29],[-60,30],[-60,31],[-60,32],[-60,33],[-60,34],[-60,35],[-60,36],[-60,37],[-60,38],[-60,39],[-60,40],[-60,41],[-60,42],[-60,43],[-60,44],[-60,45],[-60,46],[-60,47],[-60,48],[-60,49],[-60,50],[-60,51],[-60,52],[-60,53],[-60,54],[-60,55],[-60,56],[-60,57],[-60,58],[-60,59],[-60,60],[-60,61],[-60,62],[-60,63],[-60,64],[-60,65],[-60,66],[-60,67],[-60,68],[-60,69],[-60,70],[-60,71],[-60,72],[-60,73],[-60,74],[-60,75],[-60,76],[-60,77],[-60,78],[-60,79],[-60,80],[-60,81],[-60,82],[-60,83],[-60,84],[-60,85],[-60,86],[-60,87],[-60,88],[-60,89],[-60,90]]}},{"type":"Feature","properties":{"type":"meridian","value":-45},"geometry":{"type":"LineString","coordinates":[[-45,-90],[-45,-89],[-45,-88],[-45,-87],[-45,-86],[-45,-85],[-45,-84],[-45,-83],[-45,-82],[-45,-81],[-45,-80],[-45,-79],[-45,-78],[-45,-77],[-45,-76],[-45,-75],[-45,-74],[-45,-73],[-45,-72],[-45,-71],[-45,-70],[-45,-69],[-45,-68],[-45,-67],[-45,-66],[-45,-65],[-45,-64],[-45,-63],[-45,-62],[-45,-61],[-45,-60],[-45,-59],[-45,-58],[-45,-57],[-45,-56],[-45,-55],[-45,-54],[-45,-53],[-45,-52],[-45,-51],[-45,-50],[-45,-49],[-45,-48],[-45,-47],[-45,-46],[-45,-45],[-45,-44],[-45,-43],[-45,-42],[-45,-41],[-45,-40],[-45,-39],[-45,-38],[-45,-37],[-45,-36],[-45,-35],[-45,-34],[-45,-33],[-45,-32],[-45,-31],[-45,-30],[-45,-29],[-45,-28],[-45,-27],[-45,-26],[-45,-25],[-45,-24],[-45,-23],[-45,-22],[-45,-21],[-45,-20],[-45,-19],[-45,-18],[-45,-17],[-45,-16],[-45,-15],[-45,-14],[-45,-13],[-45,-12],[-45,-11],[-45,-10],[-45,-9],[-45,-8],[-45,-7],[-45,-6],[-45,-5],[-45,-4],[-45,-3],[-45,-2],[-45,-1],[-45,0],[-45,1],[-45,2],[-45,3],[-45,4],[-45,5],[-45,6],[-45,7],[-45,8],[-45,9],[-45,10],[-45,11],[-45,12],[-45,13],[-45,14],[-45,15],[-45,16],[-45,17],[-45,18],[-45,19],[-45,20],[-45,21],[-45,22],[-45,23],[-45,24],[-45,25],[-45,26],[-45,27],[-45,28],[-45,29],[-45,30],[-45,31],[-45,32],[-45,33],[-45,34],[-45,35],[-45,36],[-45,37],[-45,38],[-45,39],[-45,40],[-45,41],[-45,42],[-45,43],[-45,44],[-45,45],[-45,46],[-45,47],[-45,48],[-45,49],[-45,50],[-45,51],[-45,52],[-45,53],[-45,54],[-45,55],[-45,56],[-45,57],[-45,58],[-45,59],[-45,60],[-45,61],[-45,62],[-45,63],[-45,64],[-45,65],[-45,66],[-45,67],[-45,68],[-45,69],[-45,70],[-45,71],[-45,72],[-45,73],[-45,74],[-45,75],[-45,76],[-45,77],[-45,78],[-45,79],[-45,80],[-45,81],[-45,82],[-45,83],[-45,84],[-45,85],[-45,86],[-45,87],[-45,88],[-45,89],[-45,90]]}},{"type":"Feature","properties":{"type":"meridian","value":-30},"geometry":{"type":"LineString","coordinates":[[-30,-90],[-30,-89],[-30,-88],[-30,-87],[-30,-86],[-30,-85],[-30,-84],[-30,-83],[-30,-82],[-30,-81],[-30,-80],[-30,-79],[-30,-78],[-30,-77],[-30,-76],[-30,-75],[-30,-74],[-30,-73],[-30,-72],[-30,-71],[-30,-70],[-30,-69],[-30,-68],[-30,-67],[-30,-66],[-30,-65],[-30,-64],[-30,-63],[-30,-62],[-30,-61],[-30,-60],[-30,-59],[-30,-58],[-30,-57],[-30,-56],[-30,-55],[-30,-54],[-30,-53],[-30,-52],[-30,-51],[-30,-50],[-30,-49],[-30,-48],[-30,-47],[-30,-46],[-30,-45],[-30,-44],[-30,-43],[-30,-42],[-30,-41],[-30,-40],[-30,-39],[-30,-38],[-30,-37],[-30,-36],[-30,-35],[-30,-34],[-30,-33],[-30,-32],[-30,-31],[-30,-30],[-30,-29],[-30,-28],[-30,-27],[-30,-26],[-30,-25],[-30,-24],[-30,-23],[-30,-22],[-30,-21],[-30,-20],[-30,-19],[-30,-18],[-30,-17],[-30,-16],[-30,-15],[-30,-14],[-30,-13],[-30,-12],[-30,-11],[-30,-10],[-30,-9],[-30,-8],[-30,-7],[-30,-6],[-30,-5],[-30,-4],[-30,-3],[-30,-2],[-30,-1],[-30,0],[-30,1],[-30,2],[-30,3],[-30,4],[-30,5],[-30,6],[-30,7],[-30,8],[-30,9],[-30,10],[-30,11],[-30,12],[-30,13],[-30,14],[-30,15],[-30,16],[-30,17],[-30,18],[-30,19],[-30,20],[-30,21],[-30,22],[-30,23],[-30,24],[-30,25],[-30,26],[-30,27],[-30,28],[-30,29],[-30,30],[-30,31],[-30,32],[-30,33],[-30,34],[-30,35],[-30,36],[-30,37],[-30,38],[-30,39],[-30,40],[-30,41],[-30,42],[-30,43],[-30,44],[-30,45],[-30,46],[-30,47],[-30,48],[-30,49],[-30,50],[-30,51],[-30,52],[-30,53],[-30,54],[-30,55],[-30,56],[-30,57],[-30,58],[-30,59],[-30,60],[-30,61],[-30,62],[-30,63],[-30,64],[-30,65],[-30,66],[-30,67],[-30,68],[-30,69],[-30,70],[-30,71],[-30,72],[-30,73],[-30,74],[-30,75],[-30,76],[-30,77],[-30,78],[-30,79],[-30,80],[-30,81],[-30,82],[-30,83],[-30,84],[-30,85],[-30,86],[-30,87],[-30,88],[-30,89],[-30,90]]}},{"type":"Feature","properties":{"type":"meridian","value":-15},"geometry":{"type":"LineString","coordinates":[[-15,-90],[-15,-89],[-15,-88],[-15,-87],[-15,-86],[-15,-85],[-15,-84],[-15,-83],[-15,-82],[-15,-81],[-15,-80],[-15,-79],[-15,-78],[-15,-77],[-15,-76],[-15,-75],[-15,-74],[-15,-73],[-15,-72],[-15,-71],[-15,-70],[-15,-69],[-15,-68],[-15,-67],[-15,-66],[-15,-65],[-15,-64],[-15,-63],[-15,-62],[-15,-61],[-15,-60],[-15,-59],[-15,-58],[-15,-57],[-15,-56],[-15,-55],[-15,-54],[-15,-53],[-15,-52],[-15,-51],[-15,-50],[-15,-49],[-15,-48],[-15,-47],[-15,-46],[-15,-45],[-15,-44],[-15,-43],[-15,-42],[-15,-41],[-15,-40],[-15,-39],[-15,-38],[-15,-37],[-15,-36],[-15,-35],[-15,-34],[-15,-33],[-15,-32],[-15,-31],[-15,-30],[-15,-29],[-15,-28],[-15,-27],[-15,-26],[-15,-25],[-15,-24],[-15,-23],[-15,-22],[-15,-21],[-15,-20],[-15,-19],[-15,-18],[-15,-17],[-15,-16],[-15,-15],[-15,-14],[-15,-13],[-15,-12],[-15,-11],[-15,-10],[-15,-9],[-15,-8],[-15,-7],[-15,-6],[-15,-5],[-15,-4],[-15,-3],[-15,-2],[-15,-1],[-15,0],[-15,1],[-15,2],[-15,3],[-15,4],[-15,5],[-15,6],[-15,7],[-15,8],[-15,9],[-15,10],[-15,11],[-15,12],[-15,13],[-15,14],[-15,15],[-15,16],[-15,17],[-15,18],[-15,19],[-15,20],[-15,21],[-15,22],[-15,23],[-15,24],[-15,25],[-15,26],[-15,27],[-15,28],[-15,29],[-15,30],[-15,31],[-15,32],[-15,33],[-15,34],[-15,35],[-15,36],[-15,37],[-15,38],[-15,39],[-15,40],[-15,41],[-15,42],[-15,43],[-15,44],[-15,45],[-15,46],[-15,47],[-15,48],[-15,49],[-15,50],[-15,51],[-15,52],[-15,53],[-15,54],[-15,55],[-15,56],[-15,57],[-15,58],[-15,59],[-15,60],[-15,61],[-15,62],[-15,63],[-15,64],[-15,65],[-15,66],[-15,67],[-15,68],[-15,69],[-15,70],[-15,71],[-15,72],[-15,73],[-15,74],[-15,75],[-15,76],[-15,77],[-15,78],[-15,79],[-15,80],[-15,81],[-15,82],[-15,83],[-15,84],[-15,85],[-15,86],[-15,87],[-15,88],[-15,89],[-15,90]]}},{"type":"Feature","properties":{"type":"meridian","value":0},"geometry":{"type":"LineString","coordinates":[[0,-90],[0,-89],[0,-88],[0,-87],[0,-86],[0,-85],[0,-84],[0,-83],[0,-82],[0,-81],[0,-80],[0,-79],[0,-78],[0,-77],[0,-76],[0,-75],[0,-74],[0,-73],[0,-72],[0,-71],[0,-70],[0,-69],[0,-68],[0,-67],[0,-66],[0,-65],[0,-64],[0,-63],[0,-62],[0,-61],[0,-60],[0,-59],[0,-58],[0,-57],[0,-56],[0,-55],[0,-54],[0,-53],[0,-52],[0,-51],[0,-50],[0,-49],[0,-48],[0,-47],[0,-46],[0,-45],[0,-44],[0,-43],[0,-42],[0,-41],[0,-40],[0,-39],[0,-38],[0,-37],[0,-36],[0,-35],[0,-34],[0,-33],[0,-32],[0,-31],[0,-30],[0,-29],[0,-28],[0,-27],[0,-26],[0,-25],[0,-24],[0,-23],[0,-22],[0,-21],[0,-20],[0,-19],[0,-18],[0,-17],[0,-16],[0,-15],[0,-14],[0,-13],[0,-12],[0,-11],[0,-10],[0,-9],[0,-8],[0,-7],[0,-6],[0,-5],[0,-4],[0,-3],[0,-2],[0,-1],[0,0],[0,1],[0,2],[0,3],[0,4],[0,5],[0,6],[0,7],[0,8],[0,9],[0,10],[0,11],[0,12],[0,13],[0,14],[0,15],[0,16],[0,17],[0,18],[0,19],[0,20],[0,21],[0,22],[0,23],[0,24],[0,25],[0,26],[0,27],[0,28],[0,29],[0,30],[0,31],[0,32],[0,33],[0,34],[0,35],[0,36],[0,37],[0,38],[0,39],[0,40],[0,41],[0,42],[0,43],[0,44],[0,45],[0,46],[0,47],[0,48],[0,49],[0,50],[0,51],[0,52],[0,53],[0,54],[0,55],[0,56],[0,57],[0,58],[0,59],[0,60],[0,61],[0,62],[0,63],[0,64],[0,65],[0,66],[0,67],[0,68],[0,69],[0,70],[0,71],[0,72],[0,73],[0,74],[0,75],[0,76],[0,77],[0,78],[0,79],[0,80],[0,81],[0,82],[0,83],[0,84],[0,85],[0,86],[0,87],[0,88],[0,89],[0,90]]}},{"type":"Feature","properties":{"type":"meridian","value":15},"geometry":{"type":"LineString","coordinates":[[15,-90],[15,-89],[15,-88],[15,-87],[15,-86],[15,-85],[15,-84],[15,-83],[15,-82],[15,-81],[15,-80],[15,-79],[15,-78],[15,-77],[15,-76],[15,-75],[15,-74],[15,-73],[15,-72],[15,-71],[15,-70],[15,-69],[15,-68],[15,-67],[15,-66],[15,-65],[15,-64],[15,-63],[15,-62],[15,-61],[15,-60],[15,-59],[15,-58],[15,-57],[15,-56],[15,-55],[15,-54],[15,-53],[15,-52],[15,-51],[15,-50],[15,-49],[15,-48],[15,-47],[15,-46],[15,-45],[15,-44],[15,-43],[15,-42],[15,-41],[15,-40],[15,-39],[15,-38],[15,-37],[15,-36],[15,-35],[15,-34],[15,-33],[15,-32],[15,-31],[15,-30],[15,-29],[15,-28],[15,-27],[15,-26],[15,-25],[15,-24],[15,-23],[15,-22],[15,-21],[15,-20],[15,-19],[15,-18],[15,-17],[15,-16],[15,-15],[15,-14],[15,-13],[15,-12],[15,-11],[15,-10],[15,-9],[15,-8],[15,-7],[15,-6],[15,-5],[15,-4],[15,-3],[15,-2],[15,-1],[15,0],[15,1],[15,2],[15,3],[15,4],[15,5],[15,6],[15,7],[15,8],[15,9],[15,10],[15,11],[15,12],[15,13],[15,14],[15,15],[15,16],[15,17],[15,18],[15,19],[15,20],[15,21],[15,22],[15,23],[15,24],[15,25],[15,26],[15,27],[15,28],[15,29],[15,30],[15,31],[15,32],[15,33],[15,34],[15,35],[15,36],[15,37],[15,38],[15,39],[15,40],[15,41],[15,42],[15,43],[15,44],[15,45],[15,46],[15,47],[15,48],[15,49],[15,50],[15,51],[15,52],[15,53],[15,54],[15,55],[15,56],[15,57],[15,58],[15,59],[15,60],[15,61],[15,62],[15,63],[15,64],[15,65],[15,66],[15,67],[15,68],[15,69],[15,70],[15,71],[15,72],[15,73],[15,74],[15,75],[15,76],[15,77],[15,78],[15,79],[15,80],[15,81],[15,82],[15,83],[15,84],[15,85],[15,86],[15,87],[15,88],[15,89],[15,90]]}},{"type":"Feature","properties":{"type":"meridian","value":30},"geometry":{"type":"LineString","coordinates":[[30,-90],[30,-89],[30,-88],[30,-87],[30,-86],[30,-85],[30,-84],[30,-83],[30,-82],[30,-81],[30,-80],[30,-79],[30,-78],[30,-77],[30,-76],[30,-75],[30,-74],[30,-73],[30,-72],[30,-71],[30,-70],[30,-69],[30,-68],[30,-67],[30,-66],[30,-65],[30,-64],[30,-63],[30,-62],[30,-61],[30,-60],[30,-59],[30,-58],[30,-57],[30,-56],[30,-55],[30,-54],[30,-53],[30,-52],[30,-51],[30,-50],[30,-49],[30,-48],[30,-47],[30,-46],[30,-45],[30,-44],[30,-43],[30,-42],[30,-41],[30,-40],[30,-39],[30,-38],[30,-37],[30,-36],[30,-35],[30,-34],[30,-33],[30,-32],[30,-31],[30,-30],[30,-29],[30,-28],[30,-27],[30,-26],[30,-25],[30,-24],[30,-23],[30,-22],[30,-21],[30,-20],[30,-19],[30,-18],[30,-17],[30,-16],[30,-15],[30,-14],[30,-13],[30,-12],[30,-11],[30,-10],[30,-9],[30,-8],[30,-7],[30,-6],[30,-5],[30,-4],[30,-3],[30,-2],[30,-1],[30,0],[30,1],[30,2],[30,3],[30,4],[30,5],[30,6],[30,7],[30,8],[30,9],[30,10],[30,11],[30,12],[30,13],[30,14],[30,15],[30,16],[30,17],[30,18],[30,19],[30,20],[30,21],[30,22],[30,23],[30,24],[30,25],[30,26],[30,27],[30,28],[30,29],[30,30],[30,31],[30,32],[30,33],[30,34],[30,35],[30,36],[30,37],[30,38],[30,39],[30,40],[30,41],[30,42],[30,43],[30,44],[30,45],[30,46],[30,47],[30,48],[30,49],[30,50],[30,51],[30,52],[30,53],[30,54],[30,55],[30,56],[30,57],[30,58],[30,59],[30,60],[30,61],[30,62],[30,63],[30,64],[30,65],[30,66],[30,67],[30,68],[30,69],[30,70],[30,71],[30,72],[30,73],[30,74],[30,75],[30,76],[30,77],[30,78],[30,79],[30,80],[30,81],[30,82],[30,83],[30,84],[30,85],[30,86],[30,87],[30,88],[30,89],[30,90]]}},{"type":"Feature","properties":{"type":"meridian","value":45},"geometry":{"type":"LineString","coordinates":[[45,-90],[45,-89],[45,-88],[45,-87],[45,-86],[45,-85],[45,-84],[45,-83],[45,-82],[45,-81],[45,-80],[45,-79],[45,-78],[45,-77],[45,-76],[45,-75],[45,-74],[45,-73],[45,-72],[45,-71],[45,-70],[45,-69],[45,-68],[45,-67],[45,-66],[45,-65],[45,-64],[45,-63],[45,-62],[45,-61],[45,-60],[45,-59],[45,-58],[45,-57],[45,-56],[45,-55],[45,-54],[45,-53],[45,-52],[45,-51],[45,-50],[45,-49],[45,-48],[45,-47],[45,-46],[45,-45],[45,-44],[45,-43],[45,-42],[45,-41],[45,-40],[45,-39],[45,-38],[45,-37],[45,-36],[45,-35],[45,-34],[45,-33],[45,-32],[45,-31],[45,-30],[45,-29],[45,-28],[45,-27],[45,-26],[45,-25],[45,-24],[45,-23],[45,-22],[45,-21],[45,-20],[45,-19],[45,-18],[45,-17],[45,-16],[45,-15],[45,-14],[45,-13],[45,-12],[45,-11],[45,-10],[45,-9],[45,-8],[45,-7],[45,-6],[45,-5],[45,-4],[45,-3],[45,-2],[45,-1],[45,0],[45,1],[45,2],[45,3],[45,4],[45,5],[45,6],[45,7],[45,8],[45,9],[45,10],[45,11],[45,12],[45,13],[45,14],[45,15],[45,16],[45,17],[45,18],[45,19],[45,20],[45,21],[45,22],[45,23],[45,24],[45,25],[45,26],[45,27],[45,28],[45,29],[45,30],[45,31],[45,32],[45,33],[45,34],[45,35],[45,36],[45,37],[45,38],[45,39],[45,40],[45,41],[45,42],[45,43],[45,44],[45,45],[45,46],[45,47],[45,48],[45,49],[45,50],[45,51],[45,52],[45,53],[45,54],[45,55],[45,56],[45,57],[45,58],[45,59],[45,60],[45,61],[45,62],[45,63],[45,64],[45,65],[45,66],[45,67],[45,68],[45,69],[45,70],[45,71],[45,72],[45,73],[45,74],[45,75],[45,76],[45,77],[45,78],[45,79],[45,80],[45,81],[45,82],[45,83],[45,84],[45,85],[45,86],[45,87],[45,88],[45,89],[45,90]]}},{"type":"Feature","properties":{"type":"meridian","value":60},"geometry":{"type":"LineString","coordinates":[[60,-90],[60,-89],[60,-88],[60,-87],[60,-86],[60,-85],[60,-84],[60,-83],[60,-82],[60,-81],[60,-80],[60,-79],[60,-78],[60,-77],[60,-76],[60,-75],[60,-74],[60,-73],[60,-72],[60,-71],[60,-70],[60,-69],[60,-68],[60,-67],[60,-66],[60,-65],[60,-64],[60,-63],[60,-62],[60,-61],[60,-60],[60,-59],[60,-58],[60,-57],[60,-56],[60,-55],[60,-54],[60,-53],[60,-52],[60,-51],[60,-50],[60,-49],[60,-48],[60,-47],[60,-46],[60,-45],[60,-44],[60,-43],[60,-42],[60,-41],[60,-40],[60,-39],[60,-38],[60,-37],[60,-36],[60,-35],[60,-34],[60,-33],[60,-32],[60,-31],[60,-30],[60,-29],[60,-28],[60,-27],[60,-26],[60,-25],[60,-24],[60,-23],[60,-22],[60,-21],[60,-20],[60,-19],[60,-18],[60,-17],[60,-16],[60,-15],[60,-14],[60,-13],[60,-12],[60,-11],[60,-10],[60,-9],[60,-8],[60,-7],[60,-6],[60,-5],[60,-4],[60,-3],[60,-2],[60,-1],[60,0],[60,1],[60,2],[60,3],[60,4],[60,5],[60,6],[60,7],[60,8],[60,9],[60,10],[60,11],[60,12],[60,13],[60,14],[60,15],[60,16],[60,17],[60,18],[60,19],[60,20],[60,21],[60,22],[60,23],[60,24],[60,25],[60,26],[60,27],[60,28],[60,29],[60,30],[60,31],[60,32],[60,33],[60,34],[60,35],[60,36],[60,37],[60,38],[60,39],[60,40],[60,41],[60,42],[60,43],[60,44],[60,45],[60,46],[60,47],[60,48],[60,49],[60,50],[60,51],[60,52],[60,53],[60,54],[60,55],[60,56],[60,57],[60,58],[60,59],[60,60],[60,61],[60,62],[60,63],[60,64],[60,65],[60,66],[60,67],[60,68],[60,69],[60,70],[60,71],[60,72],[60,73],[60,74],[60,75],[60,76],[60,77],[60,78],[60,79],[60,80],[60,81],[60,82],[60,83],[60,84],[60,85],[60,86],[60,87],[60,88],[60,89],[60,90]]}},{"type":"Feature","properties":{"type":"meridian","value":75},"geometry":{"type":"LineString","coordinates":[[75,-90],[75,-89],[75,-88],[75,-87],[75,-86],[75,-85],[75,-84],[75,-83],[75,-82],[75,-81],[75,-80],[75,-79],[75,-78],[75,-77],[75,-76],[75,-75],[75,-74],[75,-73],[75,-72],[75,-71],[75,-70],[75,-69],[75,-68],[75,-67],[75,-66],[75,-65],[75,-64],[75,-63],[75,-62],[75,-61],[75,-60],[75,-59],[75,-58],[75,-57],[75,-56],[75,-55],[75,-54],[75,-53],[75,-52],[75,-51],[75,-50],[75,-49],[75,-48],[75,-47],[75,-46],[75,-45],[75,-44],[75,-43],[75,-42],[75,-41],[75,-40],[75,-39],[75,-38],[75,-37],[75,-36],[75,-35],[75,-34],[75,-33],[75,-32],[75,-31],[75,-30],[75,-29],[75,-28],[75,-27],[75,-26],[75,-25],[75,-24],[75,-23],[75,-22],[75,-21],[75,-20],[75,-19],[75,-18],[75,-17],[75,-16],[75,-15],[75,-14],[75,-13],[75,-12],[75,-11],[75,-10],[75,-9],[75,-8],[75,-7],[75,-6],[75,-5],[75,-4],[75,-3],[75,-2],[75,-1],[75,0],[75,1],[75,2],[75,3],[75,4],[75,5],[75,6],[75,7],[75,8],[75,9],[75,10],[75,11],[75,12],[75,13],[75,14],[75,15],[75,16],[75,17],[75,18],[75,19],[75,20],[75,21],[75,22],[75,23],[75,24],[75,25],[75,26],[75,27],[75,28],[75,29],[75,30],[75,31],[75,32],[75,33],[75,34],[75,35],[75,36],[75,37],[75,38],[75,39],[75,40],[75,41],[75,42],[75,43],[75,44],[75,45],[75,46],[75,47],[75,48],[75,49],[75,50],[75,51],[75,52],[75,53],[75,54],[75,55],[75,56],[75,57],[75,58],[75,59],[75,60],[75,61],[75,62],[75,63],[75,64],[75,65],[75,66],[75,67],[75,68],[75,69],[75,70],[75,71],[75,72],[75,73],[75,74],[75,75],[75,76],[75,77],[75,78],[75,79],[75,80],[75,81],[75,82],[75,83],[75,84],[75,85],[75,86],[75,87],[75,88],[75,89],[75,90]]}},{"type":"Feature","properties":{"type":"meridian","value":90},"geometry":{"type":"LineString","coordinates":[[90,-90],[90,-89],[90,-88],[90,-87],[90,-86],[90,-85],[90,-84],[90,-83],[90,-82],[90,-81],[90,-80],[90,-79],[90,-78],[90,-77],[90,-76],[90,-75],[90,-74],[90,-73],[90,-72],[90,-71],[90,-70],[90,-69],[90,-68],[90,-67],[90,-66],[90,-65],[90,-64],[90,-63],[90,-62],[90,-61],[90,-60],[90,-59],[90,-58],[90,-57],[90,-56],[90,-55],[90,-54],[90,-53],[90,-52],[90,-51],[90,-50],[90,-49],[90,-48],[90,-47],[90,-46],[90,-45],[90,-44],[90,-43],[90,-42],[90,-41],[90,-40],[90,-39],[90,-38],[90,-37],[90,-36],[90,-35],[90,-34],[90,-33],[90,-32],[90,-31],[90,-30],[90,-29],[90,-28],[90,-27],[90,-26],[90,-25],[90,-24],[90,-23],[90,-22],[90,-21],[90,-20],[90,-19],[90,-18],[90,-17],[90,-16],[90,-15],[90,-14],[90,-13],[90,-12],[90,-11],[90,-10],[90,-9],[90,-8],[90,-7],[90,-6],[90,-5],[90,-4],[90,-3],[90,-2],[90,-1],[90,0],[90,1],[90,2],[90,3],[90,4],[90,5],[90,6],[90,7],[90,8],[90,9],[90,10],[90,11],[90,12],[90,13],[90,14],[90,15],[90,16],[90,17],[90,18],[90,19],[90,20],[90,21],[90,22],[90,23],[90,24],[90,25],[90,26],[90,27],[90,28],[90,29],[90,30],[90,31],[90,32],[90,33],[90,34],[90,35],[90,36],[90,37],[90,38],[90,39],[90,40],[90,41],[90,42],[90,43],[90,44],[90,45],[90,46],[90,47],[90,48],[90,49],[90,50],[90,51],[90,52],[90,53],[90,54],[90,55],[90,56],[90,57],[90,58],[90,59],[90,60],[90,61],[90,62],[90,63],[90,64],[90,65],[90,66],[90,67],[90,68],[90,69],[90,70],[90,71],[90,72],[90,73],[90,74],[90,75],[90,76],[90,77],[90,78],[90,79],[90,80],[90,81],[90,82],[90,83],[90,84],[90,85],[90,86],[90,87],[90,88],[90,89],[90,90]]}},{"type":"Feature","properties":{"type":"meridian","value":105},"geometry":{"type":"LineString","coordinates":[[105,-90],[105,-89],[105,-88],[105,-87],[105,-86],[105,-85],[105,-84],[105,-83],[105,-82],[105,-81],[105,-80],[105,-79],[105,-78],[105,-77],[105,-76],[105,-75],[105,-74],[105,-73],[105,-72],[105,-71],[105,-70],[105,-69],[105,-68],[105,-67],[105,-66],[105,-65],[105,-64],[105,-63],[105,-62],[105,-61],[105,-60],[105,-59],[105,-58],[105,-57],[105,-56],[105,-55],[105,-54],[105,-53],[105,-52],[105,-51],[105,-50],[105,-49],[105,-48],[105,-47],[105,-46],[105,-45],[105,-44],[105,-43],[105,-42],[105,-41],[105,-40],[105,-39],[105,-38],[105,-37],[105,-36],[105,-35],[105,-34],[105,-33],[105,-32],[105,-31],[105,-30],[105,-29],[105,-28],[105,-27],[105,-26],[105,-25],[105,-24],[105,-23],[105,-22],[105,-21],[105,-20],[105,-19],[105,-18],[105,-17],[105,-16],[105,-15],[105,-14],[105,-13],[105,-12],[105,-11],[105,-10],[105,-9],[105,-8],[105,-7],[105,-6],[105,-5],[105,-4],[105,-3],[105,-2],[105,-1],[105,0],[105,1],[105,2],[105,3],[105,4],[105,5],[105,6],[105,7],[105,8],[105,9],[105,10],[105,11],[105,12],[105,13],[105,14],[105,15],[105,16],[105,17],[105,18],[105,19],[105,20],[105,21],[105,22],[105,23],[105,24],[105,25],[105,26],[105,27],[105,28],[105,29],[105,30],[105,31],[105,32],[105,33],[105,34],[105,35],[105,36],[105,37],[105,38],[105,39],[105,40],[105,41],[105,42],[105,43],[105,44],[105,45],[105,46],[105,47],[105,48],[105,49],[105,50],[105,51],[105,52],[105,53],[105,54],[105,55],[105,56],[105,57],[105,58],[105,59],[105,60],[105,61],[105,62],[105,63],[105,64],[105,65],[105,66],[105,67],[105,68],[105,69],[105,70],[105,71],[105,72],[105,73],[105,74],[105,75],[105,76],[105,77],[105,78],[105,79],[105,80],[105,81],[105,82],[105,83],[105,84],[105,85],[105,86],[105,87],[105,88],[105,89],[105,90]]}},{"type":"Feature","properties":{"type":"meridian","value":120},"geometry":{"type":"LineString","coordinates":[[120,-90],[120,-89],[120,-88],[120,-87],[120,-86],[120,-85],[120,-84],[120,-83],[120,-82],[120,-81],[120,-80],[120,-79],[120,-78],[120,-77],[120,-76],[120,-75],[120,-74],[120,-73],[120,-72],[120,-71],[120,-70],[120,-69],[120,-68],[120,-67],[120,-66],[120,-65],[120,-64],[120,-63],[120,-62],[120,-61],[120,-60],[120,-59],[120,-58],[120,-57],[120,-56],[120,-55],[120,-54],[120,-53],[120,-52],[120,-51],[120,-50],[120,-49],[120,-48],[120,-47],[120,-46],[120,-45],[120,-44],[120,-43],[120,-42],[120,-41],[120,-40],[120,-39],[120,-38],[120,-37],[120,-36],[120,-35],[120,-34],[120,-33],[120,-32],[120,-31],[120,-30],[120,-29],[120,-28],[120,-27],[120,-26],[120,-25],[120,-24],[120,-23],[120,-22],[120,-21],[120,-20],[120,-19],[120,-18],[120,-17],[120,-16],[120,-15],[120,-14],[120,-13],[120,-12],[120,-11],[120,-10],[120,-9],[120,-8],[120,-7],[120,-6],[120,-5],[120,-4],[120,-3],[120,-2],[120,-1],[120,0],[120,1],[120,2],[120,3],[120,4],[120,5],[120,6],[120,7],[120,8],[120,9],[120,10],[120,11],[120,12],[120,13],[120,14],[120,15],[120,16],[120,17],[120,18],[120,19],[120,20],[120,21],[120,22],[120,23],[120,24],[120,25],[120,26],[120,27],[120,28],[120,29],[120,30],[120,31],[120,32],[120,33],[120,34],[120,35],[120,36],[120,37],[120,38],[120,39],[120,40],[120,41],[120,42],[120,43],[120,44],[120,45],[120,46],[120,47],[120,48],[120,49],[120,50],[120,51],[120,52],[120,53],[120,54],[120,55],[120,56],[120,57],[120,58],[120,59],[120,60],[120,61],[120,62],[120,63],[120,64],[120,65],[120,66],[120,67],[120,68],[120,69],[120,70],[120,71],[120,72],[120,73],[120,74],[120,75],[120,76],[120,77],[120,78],[120,79],[120,80],[120,81],[120,82],[120,83],[120,84],[120,85],[120,86],[120,87],[120,88],[120,89],[120,90]]}},{"type":"Feature","properties":{"type":"meridian","value":135},"geometry":{"type":"LineString","coordinates":[[135,-90],[135,-89],[135,-88],[135,-87],[135,-86],[135,-85],[135,-84],[135,-83],[135,-82],[135,-81],[135,-80],[135,-79],[135,-78],[135,-77],[135,-76],[135,-75],[135,-74],[135,-73],[135,-72],[135,-71],[135,-70],[135,-69],[135,-68],[135,-67],[135,-66],[135,-65],[135,-64],[135,-63],[135,-62],[135,-61],[135,-60],[135,-59],[135,-58],[135,-57],[135,-56],[135,-55],[135,-54],[135,-53],[135,-52],[135,-51],[135,-50],[135,-49],[135,-48],[135,-47],[135,-46],[135,-45],[135,-44],[135,-43],[135,-42],[135,-41],[135,-40],[135,-39],[135,-38],[135,-37],[135,-36],[135,-35],[135,-34],[135,-33],[135,-32],[135,-31],[135,-30],[135,-29],[135,-28],[135,-27],[135,-26],[135,-25],[135,-24],[135,-23],[135,-22],[135,-21],[135,-20],[135,-19],[135,-18],[135,-17],[135,-16],[135,-15],[135,-14],[135,-13],[135,-12],[135,-11],[135,-10],[135,-9],[135,-8],[135,-7],[135,-6],[135,-5],[135,-4],[135,-3],[135,-2],[135,-1],[135,0],[135,1],[135,2],[135,3],[135,4],[135,5],[135,6],[135,7],[135,8],[135,9],[135,10],[135,11],[135,12],[135,13],[135,14],[135,15],[135,16],[135,17],[135,18],[135,19],[135,20],[135,21],[135,22],[135,23],[135,24],[135,25],[135,26],[135,27],[135,28],[135,29],[135,30],[135,31],[135,32],[135,33],[135,34],[135,35],[135,36],[135,37],[135,38],[135,39],[135,40],[135,41],[135,42],[135,43],[135,44],[135,45],[135,46],[135,47],[135,48],[135,49],[135,50],[135,51],[135,52],[135,53],[135,54],[135,55],[135,56],[135,57],[135,58],[135,59],[135,60],[135,61],[135,62],[135,63],[135,64],[135,65],[135,66],[135,67],[135,68],[135,69],[135,70],[135,71],[135,72],[135,73],[135,74],[135,75],[135,76],[135,77],[135,78],[135,79],[135,80],[135,81],[135,82],[135,83],[135,84],[135,85],[135,86],[135,87],[135,88],[135,89],[135,90]]}},{"type":"Feature","properties":{"type":"meridian","value":150},"geometry":{"type":"LineString","coordinates":[[150,-90],[150,-89],[150,-88],[150,-87],[150,-86],[150,-85],[150,-84],[150,-83],[150,-82],[150,-81],[150,-80],[150,-79],[150,-78],[150,-77],[150,-76],[150,-75],[150,-74],[150,-73],[150,-72],[150,-71],[150,-70],[150,-69],[150,-68],[150,-67],[150,-66],[150,-65],[150,-64],[150,-63],[150,-62],[150,-61],[150,-60],[150,-59],[150,-58],[150,-57],[150,-56],[150,-55],[150,-54],[150,-53],[150,-52],[150,-51],[150,-50],[150,-49],[150,-48],[150,-47],[150,-46],[150,-45],[150,-44],[150,-43],[150,-42],[150,-41],[150,-40],[150,-39],[150,-38],[150,-37],[150,-36],[150,-35],[150,-34],[150,-33],[150,-32],[150,-31],[150,-30],[150,-29],[150,-28],[150,-27],[150,-26],[150,-25],[150,-24],[150,-23],[150,-22],[150,-21],[150,-20],[150,-19],[150,-18],[150,-17],[150,-16],[150,-15],[150,-14],[150,-13],[150,-12],[150,-11],[150,-10],[150,-9],[150,-8],[150,-7],[150,-6],[150,-5],[150,-4],[150,-3],[150,-2],[150,-1],[150,0],[150,1],[150,2],[150,3],[150,4],[150,5],[150,6],[150,7],[150,8],[150,9],[150,10],[150,11],[150,12],[150,13],[150,14],[150,15],[150,16],[150,17],[150,18],[150,19],[150,20],[150,21],[150,22],[150,23],[150,24],[150,25],[150,26],[150,27],[150,28],[150,29],[150,30],[150,31],[150,32],[150,33],[150,34],[150,35],[150,36],[150,37],[150,38],[150,39],[150,40],[150,41],[150,42],[150,43],[150,44],[150,45],[150,46],[150,47],[150,48],[150,49],[150,50],[150,51],[150,52],[150,53],[150,54],[150,55],[150,56],[150,57],[150,58],[150,59],[150,60],[150,61],[150,62],[150,63],[150,64],[150,65],[150,66],[150,67],[150,68],[150,69],[150,70],[150,71],[150,72],[150,73],[150,74],[150,75],[150,76],[150,77],[150,78],[150,79],[150,80],[150,81],[150,82],[150,83],[150,84],[150,85],[150,86],[150,87],[150,88],[150,89],[150,90]]}},{"type":"Feature","properties":{"type":"meridian","value":165},"geometry":{"type":"LineString","coordinates":[[165,-90],[165,-89],[165,-88],[165,-87],[165,-86],[165,-85],[165,-84],[165,-83],[165,-82],[165,-81],[165,-80],[165,-79],[165,-78],[165,-77],[165,-76],[165,-75],[165,-74],[165,-73],[165,-72],[165,-71],[165,-70],[165,-69],[165,-68],[165,-67],[165,-66],[165,-65],[165,-64],[165,-63],[165,-62],[165,-61],[165,-60],[165,-59],[165,-58],[165,-57],[165,-56],[165,-55],[165,-54],[165,-53],[165,-52],[165,-51],[165,-50],[165,-49],[165,-48],[165,-47],[165,-46],[165,-45],[165,-44],[165,-43],[165,-42],[165,-41],[165,-40],[165,-39],[165,-38],[165,-37],[165,-36],[165,-35],[165,-34],[165,-33],[165,-32],[165,-31],[165,-30],[165,-29],[165,-28],[165,-27],[165,-26],[165,-25],[165,-24],[165,-23],[165,-22],[165,-21],[165,-20],[165,-19],[165,-18],[165,-17],[165,-16],[165,-15],[165,-14],[165,-13],[165,-12],[165,-11],[165,-10],[165,-9],[165,-8],[165,-7],[165,-6],[165,-5],[165,-4],[165,-3],[165,-2],[165,-1],[165,0],[165,1],[165,2],[165,3],[165,4],[165,5],[165,6],[165,7],[165,8],[165,9],[165,10],[165,11],[165,12],[165,13],[165,14],[165,15],[165,16],[165,17],[165,18],[165,19],[165,20],[165,21],[165,22],[165,23],[165,24],[165,25],[165,26],[165,27],[165,28],[165,29],[165,30],[165,31],[165,32],[165,33],[165,34],[165,35],[165,36],[165,37],[165,38],[165,39],[165,40],[165,41],[165,42],[165,43],[165,44],[165,45],[165,46],[165,47],[165,48],[165,49],[165,50],[165,51],[165,52],[165,53],[165,54],[165,55],[165,56],[165,57],[165,58],[165,59],[165,60],[165,61],[165,62],[165,63],[165,64],[165,65],[165,66],[165,67],[165,68],[165,69],[165,70],[165,71],[165,72],[165,73],[165,74],[165,75],[165,76],[165,77],[165,78],[165,79],[165,80],[165,81],[165,82],[165,83],[165,84],[165,85],[165,86],[165,87],[165,88],[165,89],[165,90]]}},{"type":"Feature","properties":{"type":"meridian","value":180},"geometry":{"type":"LineString","coordinates":[[180,-90],[180,-89],[180,-88],[180,-87],[180,-86],[180,-85],[180,-84],[180,-83],[180,-82],[180,-81],[180,-80],[180,-79],[180,-78],[180,-77],[180,-76],[180,-75],[180,-74],[180,-73],[180,-72],[180,-71],[180,-70],[180,-69],[180,-68],[180,-67],[180,-66],[180,-65],[180,-64],[180,-63],[180,-62],[180,-61],[180,-60],[180,-59],[180,-58],[180,-57],[180,-56],[180,-55],[180,-54],[180,-53],[180,-52],[180,-51],[180,-50],[180,-49],[180,-48],[180,-47],[180,-46],[180,-45],[180,-44],[180,-43],[180,-42],[180,-41],[180,-40],[180,-39],[180,-38],[180,-37],[180,-36],[180,-35],[180,-34],[180,-33],[180,-32],[180,-31],[180,-30],[180,-29],[180,-28],[180,-27],[180,-26],[180,-25],[180,-24],[180,-23],[180,-22],[180,-21],[180,-20],[180,-19],[180,-18],[180,-17],[180,-16],[180,-15],[180,-14],[180,-13],[180,-12],[180,-11],[180,-10],[180,-9],[180,-8],[180,-7],[180,-6],[180,-5],[180,-4],[180,-3],[180,-2],[180,-1],[180,0],[180,1],[180,2],[180,3],[180,4],[180,5],[180,6],[180,7],[180,8],[180,9],[180,10],[180,11],[180,12],[180,13],[180,14],[180,15],[180,16],[180,17],[180,18],[180,19],[180,20],[180,21],[180,22],[180,23],[180,24],[180,25],[180,26],[180,27],[180,28],[180,29],[180,30],[180,31],[180,32],[180,33],[180,34],[180,35],[180,36],[180,37],[180,38],[180,39],[180,40],[180,41],[180,42],[180,43],[180,44],[180,45],[180,46],[180,47],[180,48],[180,49],[180,50],[180,51],[180,52],[180,53],[180,54],[180,55],[180,56],[180,57],[180,58],[180,59],[180,60],[180,61],[180,62],[180,63],[180,64],[180,65],[180,66],[180,67],[180,68],[180,69],[180,70],[180,71],[180,72],[180,73],[180,74],[180,75],[180,76],[180,77],[180,78],[180,79],[180,80],[180,81],[180,82],[180,83],[180,84],[180,85],[180,86],[180,87],[180,88],[180,89],[180,90]]}},{"type":"Feature","properties":{"type":"parallel","value":-90},"geometry":{"type":"LineString","coordinates":[[-180,-90],[-179,-90],[-178,-90],[-177,-90],[-176,-90],[-175,-90],[-174,-90],[-173,-90],[-172,-90],[-171,-90],[-170,-90],[-169,-90],[-168,-90],[-167,-90],[-166,-90],[-165,-90],[-164,-90],[-163,-90],[-162,-90],[-161,-90],[-160,-90],[-159,-90],[-158,-90],[-157,-90],[-156,-90],[-155,-90],[-154,-90],[-153,-90],[-152,-90],[-151,-90],[-150,-90],[-149,-90],[-148,-90],[-147,-90],[-146,-90],[-145,-90],[-144,-90],[-143,-90],[-142,-90],[-141,-90],[-140,-90],[-139,-90],[-138,-90],[-137,-90],[-136,-90],[-135,-90],[-134,-90],[-133,-90],[-132,-90],[-131,-90],[-130,-90],[-129,-90],[-128,-90],[-127,-90],[-126,-90],[-125,-90],[-124,-90],[-123,-90],[-122,-90],[-121,-90],[-120,-90],[-119,-90],[-118,-90],[-117,-90],[-116,-90],[-115,-90],[-114,-90],[-113,-90],[-112,-90],[-111,-90],[-110,-90],[-109,-90],[-108,-90],[-107,-90],[-106,-90],[-105,-90],[-104,-90],[-103,-90],[-102,-90],[-101,-90],[-100,-90],[-99,-90],[-98,-90],[-97,-90],[-96,-90],[-95,-90],[-94,-90],[-93,-90],[-92,-90],[-91,-90],[-90,-90],[-89,-90],[-88,-90],[-87,-90],[-86,-90],[-85,-90],[-84,-90],[-83,-90],[-82,-90],[-81,-90],[-80,-90],[-79,-90],[-78,-90],[-77,-90],[-76,-90],[-75,-90],[-74,-90],[-73,-90],[-72,-90],[-71,-90],[-70,-90],[-69,-90],[-68,-90],[-67,-90],[-66,-90],[-65,-90],[-64,-90],[-63,-90],[-62,-90],[-61,-90],[-60,-90],[-59,-90],[-58,-90],[-57,-90],[-56,-90],[-55,-90],[-54,-90],[-53,-90],[-52,-90],[-51,-90],[-50,-90],[-49,-90],[-48,-90],[-47,-90],[-46,-90],[-45,-90],[-44,-90],[-43,-90],[-42,-90],[-41,-90],[-40,-90],[-39,-90],[-38,-90],[-37,-90],[-36,-90],[-35,-90],[-34,-90],[-33,-90],[-32,-90],[-31,-90],[-30,-90],[-29,-90],[-28,-90],[-27,-90],[-26,-90],[-25,-90],[-24,-90],[-23,-90],[-22,-90],[-21,-90],[-20,-90],[-19,-90],[-18,-90],[-17,-90],[-16,-90],[-15,-90],[-14,-90],[-13,-90],[-12,-90],[-11,-90],[-10,-90],[-9,-90],[-8,-90],[-7,-90],[-6,-90],[-5,-90],[-4,-90],[-3,-90],[-2,-90],[-1,-90],[0,-90],[1,-90],[2,-90],[3,-90],[4,-90],[5,-90],[6,-90],[7,-90],[8,-90],[9,-90],[10,-90],[11,-90],[12,-90],[13,-90],[14,-90],[15,-90],[16,-90],[17,-90],[18,-90],[19,-90],[20,-90],[21,-90],[22,-90],[23,-90],[24,-90],[25,-90],[26,-90],[27,-90],[28,-90],[29,-90],[30,-90],[31,-90],[32,-90],[33,-90],[34,-90],[35,-90],[36,-90],[37,-90],[38,-90],[39,-90],[40,-90],[41,-90],[42,-90],[43,-90],[44,-90],[45,-90],[46,-90],[47,-90],[48,-90],[49,-90],[50,-90],[51,-90],[52,-90],[53,-90],[54,-90],[55,-90],[56,-90],[57,-90],[58,-90],[59,-90],[60,-90],[61,-90],[62,-90],[63,-90],[64,-90],[65,-90],[66,-90],[67,-90],[68,-90],[69,-90],[70,-90],[71,-90],[72,-90],[73,-90],[74,-90],[75,-90],[76,-90],[77,-90],[78,-90],[79,-90],[80,-90],[81,-90],[82,-90],[83,-90],[84,-90],[85,-90],[86,-90],[87,-90],[88,-90],[89,-90],[90,-90],[91,-90],[92,-90],[93,-90],[94,-90],[95,-90],[96,-90],[97,-90],[98,-90],[99,-90],[100,-90],[101,-90],[102,-90],[103,-90],[104,-90],[105,-90],[106,-90],[107,-90],[108,-90],[109,-90],[110,-90],[111,-90],[112,-90],[113,-90],[114,-90],[115,-90],[116,-90],[117,-90],[118,-90],[119,-90],[120,-90],[121,-90],[122,-90],[123,-90],[124,-90],[125,-90],[126,-90],[127,-90],[128,-90],[129,-90],[130,-90],[131,-90],[132,-90],[133,-90],[134,-90],[135,-90],[136,-90],[137,-90],[138,-90],[139,-90],[140,-90],[141,-90],[142,-90],[143,-90],[144,-90],[145,-90],[146,-90],[147,-90],[148,-90],[149,-90],[150,-90],[151,-90],[152,-90],[153,-90],[154,-90],[155,-90],[156,-90],[157,-90],[158,-90],[159,-90],[160,-90],[161,-90],[162,-90],[163,-90],[164,-90],[165,-90],[166,-90],[167,-90],[168,-90],[169,-90],[170,-90],[171,-90],[172,-90],[173,-90],[174,-90],[175,-90],[176,-90],[177,-90],[178,-90],[179,-90],[180,-90]]}},{"type":"Feature","properties":{"type":"parallel","value":-75},"geometry":{"type":"LineString","coordinates":[[-180,-75],[-179,-75],[-178,-75],[-177,-75],[-176,-75],[-175,-75],[-174,-75],[-173,-75],[-172,-75],[-171,-75],[-170,-75],[-169,-75],[-168,-75],[-167,-75],[-166,-75],[-165,-75],[-164,-75],[-163,-75],[-162,-75],[-161,-75],[-160,-75],[-159,-75],[-158,-75],[-157,-75],[-156,-75],[-155,-75],[-154,-75],[-153,-75],[-152,-75],[-151,-75],[-150,-75],[-149,-75],[-148,-75],[-147,-75],[-146,-75],[-145,-75],[-144,-75],[-143,-75],[-142,-75],[-141,-75],[-140,-75],[-139,-75],[-138,-75],[-137,-75],[-136,-75],[-135,-75],[-134,-75],[-133,-75],[-132,-75],[-131,-75],[-130,-75],[-129,-75],[-128,-75],[-127,-75],[-126,-75],[-125,-75],[-124,-75],[-123,-75],[-122,-75],[-121,-75],[-120,-75],[-119,-75],[-118,-75],[-117,-75],[-116,-75],[-115,-75],[-114,-75],[-113,-75],[-112,-75],[-111,-75],[-110,-75],[-109,-75],[-108,-75],[-107,-75],[-106,-75],[-105,-75],[-104,-75],[-103,-75],[-102,-75],[-101,-75],[-100,-75],[-99,-75],[-98,-75],[-97,-75],[-96,-75],[-95,-75],[-94,-75],[-93,-75],[-92,-75],[-91,-75],[-90,-75],[-89,-75],[-88,-75],[-87,-75],[-86,-75],[-85,-75],[-84,-75],[-83,-75],[-82,-75],[-81,-75],[-80,-75],[-79,-75],[-78,-75],[-77,-75],[-76,-75],[-75,-75],[-74,-75],[-73,-75],[-72,-75],[-71,-75],[-70,-75],[-69,-75],[-68,-75],[-67,-75],[-66,-75],[-65,-75],[-64,-75],[-63,-75],[-62,-75],[-61,-75],[-60,-75],[-59,-75],[-58,-75],[-57,-75],[-56,-75],[-55,-75],[-54,-75],[-53,-75],[-52,-75],[-51,-75],[-50,-75],[-49,-75],[-48,-75],[-47,-75],[-46,-75],[-45,-75],[-44,-75],[-43,-75],[-42,-75],[-41,-75],[-40,-75],[-39,-75],[-38,-75],[-37,-75],[-36,-75],[-35,-75],[-34,-75],[-33,-75],[-32,-75],[-31,-75],[-30,-75],[-29,-75],[-28,-75],[-27,-75],[-26,-75],[-25,-75],[-24,-75],[-23,-75],[-22,-75],[-21,-75],[-20,-75],[-19,-75],[-18,-75],[-17,-75],[-16,-75],[-15,-75],[-14,-75],[-13,-75],[-12,-75],[-11,-75],[-10,-75],[-9,-75],[-8,-75],[-7,-75],[-6,-75],[-5,-75],[-4,-75],[-3,-75],[-2,-75],[-1,-75],[0,-75],[1,-75],[2,-75],[3,-75],[4,-75],[5,-75],[6,-75],[7,-75],[8,-75],[9,-75],[10,-75],[11,-75],[12,-75],[13,-75],[14,-75],[15,-75],[16,-75],[17,-75],[18,-75],[19,-75],[20,-75],[21,-75],[22,-75],[23,-75],[24,-75],[25,-75],[26,-75],[27,-75],[28,-75],[29,-75],[30,-75],[31,-75],[32,-75],[33,-75],[34,-75],[35,-75],[36,-75],[37,-75],[38,-75],[39,-75],[40,-75],[41,-75],[42,-75],[43,-75],[44,-75],[45,-75],[46,-75],[47,-75],[48,-75],[49,-75],[50,-75],[51,-75],[52,-75],[53,-75],[54,-75],[55,-75],[56,-75],[57,-75],[58,-75],[59,-75],[60,-75],[61,-75],[62,-75],[63,-75],[64,-75],[65,-75],[66,-75],[67,-75],[68,-75],[69,-75],[70,-75],[71,-75],[72,-75],[73,-75],[74,-75],[75,-75],[76,-75],[77,-75],[78,-75],[79,-75],[80,-75],[81,-75],[82,-75],[83,-75],[84,-75],[85,-75],[86,-75],[87,-75],[88,-75],[89,-75],[90,-75],[91,-75],[92,-75],[93,-75],[94,-75],[95,-75],[96,-75],[97,-75],[98,-75],[99,-75],[100,-75],[101,-75],[102,-75],[103,-75],[104,-75],[105,-75],[106,-75],[107,-75],[108,-75],[109,-75],[110,-75],[111,-75],[112,-75],[113,-75],[114,-75],[115,-75],[116,-75],[117,-75],[118,-75],[119,-75],[120,-75],[121,-75],[122,-75],[123,-75],[124,-75],[125,-75],[126,-75],[127,-75],[128,-75],[129,-75],[130,-75],[131,-75],[132,-75],[133,-75],[134,-75],[135,-75],[136,-75],[137,-75],[138,-75],[139,-75],[140,-75],[141,-75],[142,-75],[143,-75],[144,-75],[145,-75],[146,-75],[147,-75],[148,-75],[149,-75],[150,-75],[151,-75],[152,-75],[153,-75],[154,-75],[155,-75],[156,-75],[157,-75],[158,-75],[159,-75],[160,-75],[161,-75],[162,-75],[163,-75],[164,-75],[165,-75],[166,-75],[167,-75],[168,-75],[169,-75],[170,-75],[171,-75],[172,-75],[173,-75],[174,-75],[175,-75],[176,-75],[177,-75],[178,-75],[179,-75],[180,-75]]}},{"type":"Feature","properties":{"type":"parallel","value":-60},"geometry":{"type":"LineString","coordinates":[[-180,-60],[-179,-60],[-178,-60],[-177,-60],[-176,-60],[-175,-60],[-174,-60],[-173,-60],[-172,-60],[-171,-60],[-170,-60],[-169,-60],[-168,-60],[-167,-60],[-166,-60],[-165,-60],[-164,-60],[-163,-60],[-162,-60],[-161,-60],[-160,-60],[-159,-60],[-158,-60],[-157,-60],[-156,-60],[-155,-60],[-154,-60],[-153,-60],[-152,-60],[-151,-60],[-150,-60],[-149,-60],[-148,-60],[-147,-60],[-146,-60],[-145,-60],[-144,-60],[-143,-60],[-142,-60],[-141,-60],[-140,-60],[-139,-60],[-138,-60],[-137,-60],[-136,-60],[-135,-60],[-134,-60],[-133,-60],[-132,-60],[-131,-60],[-130,-60],[-129,-60],[-128,-60],[-127,-60],[-126,-60],[-125,-60],[-124,-60],[-123,-60],[-122,-60],[-121,-60],[-120,-60],[-119,-60],[-118,-60],[-117,-60],[-116,-60],[-115,-60],[-114,-60],[-113,-60],[-112,-60],[-111,-60],[-110,-60],[-109,-60],[-108,-60],[-107,-60],[-106,-60],[-105,-60],[-104,-60],[-103,-60],[-102,-60],[-101,-60],[-100,-60],[-99,-60],[-98,-60],[-97,-60],[-96,-60],[-95,-60],[-94,-60],[-93,-60],[-92,-60],[-91,-60],[-90,-60],[-89,-60],[-88,-60],[-87,-60],[-86,-60],[-85,-60],[-84,-60],[-83,-60],[-82,-60],[-81,-60],[-80,-60],[-79,-60],[-78,-60],[-77,-60],[-76,-60],[-75,-60],[-74,-60],[-73,-60],[-72,-60],[-71,-60],[-70,-60],[-69,-60],[-68,-60],[-67,-60],[-66,-60],[-65,-60],[-64,-60],[-63,-60],[-62,-60],[-61,-60],[-60,-60],[-59,-60],[-58,-60],[-57,-60],[-56,-60],[-55,-60],[-54,-60],[-53,-60],[-52,-60],[-51,-60],[-50,-60],[-49,-60],[-48,-60],[-47,-60],[-46,-60],[-45,-60],[-44,-60],[-43,-60],[-42,-60],[-41,-60],[-40,-60],[-39,-60],[-38,-60],[-37,-60],[-36,-60],[-35,-60],[-34,-60],[-33,-60],[-32,-60],[-31,-60],[-30,-60],[-29,-60],[-28,-60],[-27,-60],[-26,-60],[-25,-60],[-24,-60],[-23,-60],[-22,-60],[-21,-60],[-20,-60],[-19,-60],[-18,-60],[-17,-60],[-16,-60],[-15,-60],[-14,-60],[-13,-60],[-12,-60],[-11,-60],[-10,-60],[-9,-60],[-8,-60],[-7,-60],[-6,-60],[-5,-60],[-4,-60],[-3,-60],[-2,-60],[-1,-60],[0,-60],[1,-60],[2,-60],[3,-60],[4,-60],[5,-60],[6,-60],[7,-60],[8,-60],[9,-60],[10,-60],[11,-60],[12,-60],[13,-60],[14,-60],[15,-60],[16,-60],[17,-60],[18,-60],[19,-60],[20,-60],[21,-60],[22,-60],[23,-60],[24,-60],[25,-60],[26,-60],[27,-60],[28,-60],[29,-60],[30,-60],[31,-60],[32,-60],[33,-60],[34,-60],[35,-60],[36,-60],[37,-60],[38,-60],[39,-60],[40,-60],[41,-60],[42,-60],[43,-60],[44,-60],[45,-60],[46,-60],[47,-60],[48,-60],[49,-60],[50,-60],[51,-60],[52,-60],[53,-60],[54,-60],[55,-60],[56,-60],[57,-60],[58,-60],[59,-60],[60,-60],[61,-60],[62,-60],[63,-60],[64,-60],[65,-60],[66,-60],[67,-60],[68,-60],[69,-60],[70,-60],[71,-60],[72,-60],[73,-60],[74,-60],[75,-60],[76,-60],[77,-60],[78,-60],[79,-60],[80,-60],[81,-60],[82,-60],[83,-60],[84,-60],[85,-60],[86,-60],[87,-60],[88,-60],[89,-60],[90,-60],[91,-60],[92,-60],[93,-60],[94,-60],[95,-60],[96,-60],[97,-60],[98,-60],[99,-60],[100,-60],[101,-60],[102,-60],[103,-60],[104,-60],[105,-60],[106,-60],[107,-60],[108,-60],[109,-60],[110,-60],[111,-60],[112,-60],[113,-60],[114,-60],[115,-60],[116,-60],[117,-60],[118,-60],[119,-60],[120,-60],[121,-60],[122,-60],[123,-60],[124,-60],[125,-60],[126,-60],[127,-60],[128,-60],[129,-60],[130,-60],[131,-60],[132,-60],[133,-60],[134,-60],[135,-60],[136,-60],[137,-60],[138,-60],[139,-60],[140,-60],[141,-60],[142,-60],[143,-60],[144,-60],[145,-60],[146,-60],[147,-60],[148,-60],[149,-60],[150,-60],[151,-60],[152,-60],[153,-60],[154,-60],[155,-60],[156,-60],[157,-60],[158,-60],[159,-60],[160,-60],[161,-60],[162,-60],[163,-60],[164,-60],[165,-60],[166,-60],[167,-60],[168,-60],[169,-60],[170,-60],[171,-60],[172,-60],[173,-60],[174,-60],[175,-60],[176,-60],[177,-60],[178,-60],[179,-60],[180,-60]]}},{"type":"Feature","properties":{"type":"parallel","value":-45},"geometry":{"type":"LineString","coordinates":[[-180,-45],[-179,-45],[-178,-45],[-177,-45],[-176,-45],[-175,-45],[-174,-45],[-173,-45],[-172,-45],[-171,-45],[-170,-45],[-169,-45],[-168,-45],[-167,-45],[-166,-45],[-165,-45],[-164,-45],[-163,-45],[-162,-45],[-161,-45],[-160,-45],[-159,-45],[-158,-45],[-157,-45],[-156,-45],[-155,-45],[-154,-45],[-153,-45],[-152,-45],[-151,-45],[-150,-45],[-149,-45],[-148,-45],[-147,-45],[-146,-45],[-145,-45],[-144,-45],[-143,-45],[-142,-45],[-141,-45],[-140,-45],[-139,-45],[-138,-45],[-137,-45],[-136,-45],[-135,-45],[-134,-45],[-133,-45],[-132,-45],[-131,-45],[-130,-45],[-129,-45],[-128,-45],[-127,-45],[-126,-45],[-125,-45],[-124,-45],[-123,-45],[-122,-45],[-121,-45],[-120,-45],[-119,-45],[-118,-45],[-117,-45],[-116,-45],[-115,-45],[-114,-45],[-113,-45],[-112,-45],[-111,-45],[-110,-45],[-109,-45],[-108,-45],[-107,-45],[-106,-45],[-105,-45],[-104,-45],[-103,-45],[-102,-45],[-101,-45],[-100,-45],[-99,-45],[-98,-45],[-97,-45],[-96,-45],[-95,-45],[-94,-45],[-93,-45],[-92,-45],[-91,-45],[-90,-45],[-89,-45],[-88,-45],[-87,-45],[-86,-45],[-85,-45],[-84,-45],[-83,-45],[-82,-45],[-81,-45],[-80,-45],[-79,-45],[-78,-45],[-77,-45],[-76,-45],[-75,-45],[-74,-45],[-73,-45],[-72,-45],[-71,-45],[-70,-45],[-69,-45],[-68,-45],[-67,-45],[-66,-45],[-65,-45],[-64,-45],[-63,-45],[-62,-45],[-61,-45],[-60,-45],[-59,-45],[-58,-45],[-57,-45],[-56,-45],[-55,-45],[-54,-45],[-53,-45],[-52,-45],[-51,-45],[-50,-45],[-49,-45],[-48,-45],[-47,-45],[-46,-45],[-45,-45],[-44,-45],[-43,-45],[-42,-45],[-41,-45],[-40,-45],[-39,-45],[-38,-45],[-37,-45],[-36,-45],[-35,-45],[-34,-45],[-33,-45],[-32,-45],[-31,-45],[-30,-45],[-29,-45],[-28,-45],[-27,-45],[-26,-45],[-25,-45],[-24,-45],[-23,-45],[-22,-45],[-21,-45],[-20,-45],[-19,-45],[-18,-45],[-17,-45],[-16,-45],[-15,-45],[-14,-45],[-13,-45],[-12,-45],[-11,-45],[-10,-45],[-9,-45],[-8,-45],[-7,-45],[-6,-45],[-5,-45],[-4,-45],[-3,-45],[-2,-45],[-1,-45],[0,-45],[1,-45],[2,-45],[3,-45],[4,-45],[5,-45],[6,-45],[7,-45],[8,-45],[9,-45],[10,-45],[11,-45],[12,-45],[13,-45],[14,-45],[15,-45],[16,-45],[17,-45],[18,-45],[19,-45],[20,-45],[21,-45],[22,-45],[23,-45],[24,-45],[25,-45],[26,-45],[27,-45],[28,-45],[29,-45],[30,-45],[31,-45],[32,-45],[33,-45],[34,-45],[35,-45],[36,-45],[37,-45],[38,-45],[39,-45],[40,-45],[41,-45],[42,-45],[43,-45],[44,-45],[45,-45],[46,-45],[47,-45],[48,-45],[49,-45],[50,-45],[51,-45],[52,-45],[53,-45],[54,-45],[55,-45],[56,-45],[57,-45],[58,-45],[59,-45],[60,-45],[61,-45],[62,-45],[63,-45],[64,-45],[65,-45],[66,-45],[67,-45],[68,-45],[69,-45],[70,-45],[71,-45],[72,-45],[73,-45],[74,-45],[75,-45],[76,-45],[77,-45],[78,-45],[79,-45],[80,-45],[81,-45],[82,-45],[83,-45],[84,-45],[85,-45],[86,-45],[87,-45],[88,-45],[89,-45],[90,-45],[91,-45],[92,-45],[93,-45],[94,-45],[95,-45],[96,-45],[97,-45],[98,-45],[99,-45],[100,-45],[101,-45],[102,-45],[103,-45],[104,-45],[105,-45],[106,-45],[107,-45],[108,-45],[109,-45],[110,-45],[111,-45],[112,-45],[113,-45],[114,-45],[115,-45],[116,-45],[117,-45],[118,-45],[119,-45],[120,-45],[121,-45],[122,-45],[123,-45],[124,-45],[125,-45],[126,-45],[127,-45],[128,-45],[129,-45],[130,-45],[131,-45],[132,-45],[133,-45],[134,-45],[135,-45],[136,-45],[137,-45],[138,-45],[139,-45],[140,-45],[141,-45],[142,-45],[143,-45],[144,-45],[145,-45],[146,-45],[147,-45],[148,-45],[149,-45],[150,-45],[151,-45],[152,-45],[153,-45],[154,-45],[155,-45],[156,-45],[157,-45],[158,-45],[159,-45],[160,-45],[161,-45],[162,-45],[163,-45],[164,-45],[165,-45],[166,-45],[167,-45],[168,-45],[169,-45],[170,-45],[171,-45],[172,-45],[173,-45],[174,-45],[175,-45],[176,-45],[177,-45],[178,-45],[179,-45],[180,-45]]}},{"type":"Feature","properties":{"type":"parallel","value":-30},"geometry":{"type":"LineString","coordinates":[[-180,-30],[-179,-30],[-178,-30],[-177,-30],[-176,-30],[-175,-30],[-174,-30],[-173,-30],[-172,-30],[-171,-30],[-170,-30],[-169,-30],[-168,-30],[-167,-30],[-166,-30],[-165,-30],[-164,-30],[-163,-30],[-162,-30],[-161,-30],[-160,-30],[-159,-30],[-158,-30],[-157,-30],[-156,-30],[-155,-30],[-154,-30],[-153,-30],[-152,-30],[-151,-30],[-150,-30],[-149,-30],[-148,-30],[-147,-30],[-146,-30],[-145,-30],[-144,-30],[-143,-30],[-142,-30],[-141,-30],[-140,-30],[-139,-30],[-138,-30],[-137,-30],[-136,-30],[-135,-30],[-134,-30],[-133,-30],[-132,-30],[-131,-30],[-130,-30],[-129,-30],[-128,-30],[-127,-30],[-126,-30],[-125,-30],[-124,-30],[-123,-30],[-122,-30],[-121,-30],[-120,-30],[-119,-30],[-118,-30],[-117,-30],[-116,-30],[-115,-30],[-114,-30],[-113,-30],[-112,-30],[-111,-30],[-110,-30],[-109,-30],[-108,-30],[-107,-30],[-106,-30],[-105,-30],[-104,-30],[-103,-30],[-102,-30],[-101,-30],[-100,-30],[-99,-30],[-98,-30],[-97,-30],[-96,-30],[-95,-30],[-94,-30],[-93,-30],[-92,-30],[-91,-30],[-90,-30],[-89,-30],[-88,-30],[-87,-30],[-86,-30],[-85,-30],[-84,-30],[-83,-30],[-82,-30],[-81,-30],[-80,-30],[-79,-30],[-78,-30],[-77,-30],[-76,-30],[-75,-30],[-74,-30],[-73,-30],[-72,-30],[-71,-30],[-70,-30],[-69,-30],[-68,-30],[-67,-30],[-66,-30],[-65,-30],[-64,-30],[-63,-30],[-62,-30],[-61,-30],[-60,-30],[-59,-30],[-58,-30],[-57,-30],[-56,-30],[-55,-30],[-54,-30],[-53,-30],[-52,-30],[-51,-30],[-50,-30],[-49,-30],[-48,-30],[-47,-30],[-46,-30],[-45,-30],[-44,-30],[-43,-30],[-42,-30],[-41,-30],[-40,-30],[-39,-30],[-38,-30],[-37,-30],[-36,-30],[-35,-30],[-34,-30],[-33,-30],[-32,-30],[-31,-30],[-30,-30],[-29,-30],[-28,-30],[-27,-30],[-26,-30],[-25,-30],[-24,-30],[-23,-30],[-22,-30],[-21,-30],[-20,-30],[-19,-30],[-18,-30],[-17,-30],[-16,-30],[-15,-30],[-14,-30],[-13,-30],[-12,-30],[-11,-30],[-10,-30],[-9,-30],[-8,-30],[-7,-30],[-6,-30],[-5,-30],[-4,-30],[-3,-30],[-2,-30],[-1,-30],[0,-30],[1,-30],[2,-30],[3,-30],[4,-30],[5,-30],[6,-30],[7,-30],[8,-30],[9,-30],[10,-30],[11,-30],[12,-30],[13,-30],[14,-30],[15,-30],[16,-30],[17,-30],[18,-30],[19,-30],[20,-30],[21,-30],[22,-30],[23,-30],[24,-30],[25,-30],[26,-30],[27,-30],[28,-30],[29,-30],[30,-30],[31,-30],[32,-30],[33,-30],[34,-30],[35,-30],[36,-30],[37,-30],[38,-30],[39,-30],[40,-30],[41,-30],[42,-30],[43,-30],[44,-30],[45,-30],[46,-30],[47,-30],[48,-30],[49,-30],[50,-30],[51,-30],[52,-30],[53,-30],[54,-30],[55,-30],[56,-30],[57,-30],[58,-30],[59,-30],[60,-30],[61,-30],[62,-30],[63,-30],[64,-30],[65,-30],[66,-30],[67,-30],[68,-30],[69,-30],[70,-30],[71,-30],[72,-30],[73,-30],[74,-30],[75,-30],[76,-30],[77,-30],[78,-30],[79,-30],[80,-30],[81,-30],[82,-30],[83,-30],[84,-30],[85,-30],[86,-30],[87,-30],[88,-30],[89,-30],[90,-30],[91,-30],[92,-30],[93,-30],[94,-30],[95,-30],[96,-30],[97,-30],[98,-30],[99,-30],[100,-30],[101,-30],[102,-30],[103,-30],[104,-30],[105,-30],[106,-30],[107,-30],[108,-30],[109,-30],[110,-30],[111,-30],[112,-30],[113,-30],[114,-30],[115,-30],[116,-30],[117,-30],[118,-30],[119,-30],[120,-30],[121,-30],[122,-30],[123,-30],[124,-30],[125,-30],[126,-30],[127,-30],[128,-30],[129,-30],[130,-30],[131,-30],[132,-30],[133,-30],[134,-30],[135,-30],[136,-30],[137,-30],[138,-30],[139,-30],[140,-30],[141,-30],[142,-30],[143,-30],[144,-30],[145,-30],[146,-30],[147,-30],[148,-30],[149,-30],[150,-30],[151,-30],[152,-30],[153,-30],[154,-30],[155,-30],[156,-30],[157,-30],[158,-30],[159,-30],[160,-30],[161,-30],[162,-30],[163,-30],[164,-30],[165,-30],[166,-30],[167,-30],[168,-30],[169,-30],[170,-30],[171,-30],[172,-30],[173,-30],[174,-30],[175,-30],[176,-30],[177,-30],[178,-30],[179,-30],[180,-30]]}},{"type":"Feature","properties":{"type":"parallel","value":-15},"geometry":{"type":"LineString","coordinates":[[-180,-15],[-179,-15],[-178,-15],[-177,-15],[-176,-15],[-175,-15],[-174,-15],[-173,-15],[-172,-15],[-171,-15],[-170,-15],[-169,-15],[-168,-15],[-167,-15],[-166,-15],[-165,-15],[-164,-15],[-163,-15],[-162,-15],[-161,-15],[-160,-15],[-159,-15],[-158,-15],[-157,-15],[-156,-15],[-155,-15],[-154,-15],[-153,-15],[-152,-15],[-151,-15],[-150,-15],[-149,-15],[-148,-15],[-147,-15],[-146,-15],[-145,-15],[-144,-15],[-143,-15],[-142,-15],[-141,-15],[-140,-15],[-139,-15],[-138,-15],[-137,-15],[-136,-15],[-135,-15],[-134,-15],[-133,-15],[-132,-15],[-131,-15],[-130,-15],[-129,-15],[-128,-15],[-127,-15],[-126,-15],[-125,-15],[-124,-15],[-123,-15],[-122,-15],[-121,-15],[-120,-15],[-119,-15],[-118,-15],[-117,-15],[-116,-15],[-115,-15],[-114,-15],[-113,-15],[-112,-15],[-111,-15],[-110,-15],[-109,-15],[-108,-15],[-107,-15],[-106,-15],[-105,-15],[-104,-15],[-103,-15],[-102,-15],[-101,-15],[-100,-15],[-99,-15],[-98,-15],[-97,-15],[-96,-15],[-95,-15],[-94,-15],[-93,-15],[-92,-15],[-91,-15],[-90,-15],[-89,-15],[-88,-15],[-87,-15],[-86,-15],[-85,-15],[-84,-15],[-83,-15],[-82,-15],[-81,-15],[-80,-15],[-79,-15],[-78,-15],[-77,-15],[-76,-15],[-75,-15],[-74,-15],[-73,-15],[-72,-15],[-71,-15],[-70,-15],[-69,-15],[-68,-15],[-67,-15],[-66,-15],[-65,-15],[-64,-15],[-63,-15],[-62,-15],[-61,-15],[-60,-15],[-59,-15],[-58,-15],[-57,-15],[-56,-15],[-55,-15],[-54,-15],[-53,-15],[-52,-15],[-51,-15],[-50,-15],[-49,-15],[-48,-15],[-47,-15],[-46,-15],[-45,-15],[-44,-15],[-43,-15],[-42,-15],[-41,-15],[-40,-15],[-39,-15],[-38,-15],[-37,-15],[-36,-15],[-35,-15],[-34,-15],[-33,-15],[-32,-15],[-31,-15],[-30,-15],[-29,-15],[-28,-15],[-27,-15],[-26,-15],[-25,-15],[-24,-15],[-23,-15],[-22,-15],[-21,-15],[-20,-15],[-19,-15],[-18,-15],[-17,-15],[-16,-15],[-15,-15],[-14,-15],[-13,-15],[-12,-15],[-11,-15],[-10,-15],[-9,-15],[-8,-15],[-7,-15],[-6,-15],[-5,-15],[-4,-15],[-3,-15],[-2,-15],[-1,-15],[0,-15],[1,-15],[2,-15],[3,-15],[4,-15],[5,-15],[6,-15],[7,-15],[8,-15],[9,-15],[10,-15],[11,-15],[12,-15],[13,-15],[14,-15],[15,-15],[16,-15],[17,-15],[18,-15],[19,-15],[20,-15],[21,-15],[22,-15],[23,-15],[24,-15],[25,-15],[26,-15],[27,-15],[28,-15],[29,-15],[30,-15],[31,-15],[32,-15],[33,-15],[34,-15],[35,-15],[36,-15],[37,-15],[38,-15],[39,-15],[40,-15],[41,-15],[42,-15],[43,-15],[44,-15],[45,-15],[46,-15],[47,-15],[48,-15],[49,-15],[50,-15],[51,-15],[52,-15],[53,-15],[54,-15],[55,-15],[56,-15],[57,-15],[58,-15],[59,-15],[60,-15],[61,-15],[62,-15],[63,-15],[64,-15],[65,-15],[66,-15],[67,-15],[68,-15],[69,-15],[70,-15],[71,-15],[72,-15],[73,-15],[74,-15],[75,-15],[76,-15],[77,-15],[78,-15],[79,-15],[80,-15],[81,-15],[82,-15],[83,-15],[84,-15],[85,-15],[86,-15],[87,-15],[88,-15],[89,-15],[90,-15],[91,-15],[92,-15],[93,-15],[94,-15],[95,-15],[96,-15],[97,-15],[98,-15],[99,-15],[100,-15],[101,-15],[102,-15],[103,-15],[104,-15],[105,-15],[106,-15],[107,-15],[108,-15],[109,-15],[110,-15],[111,-15],[112,-15],[113,-15],[114,-15],[115,-15],[116,-15],[117,-15],[118,-15],[119,-15],[120,-15],[121,-15],[122,-15],[123,-15],[124,-15],[125,-15],[126,-15],[127,-15],[128,-15],[129,-15],[130,-15],[131,-15],[132,-15],[133,-15],[134,-15],[135,-15],[136,-15],[137,-15],[138,-15],[139,-15],[140,-15],[141,-15],[142,-15],[143,-15],[144,-15],[145,-15],[146,-15],[147,-15],[148,-15],[149,-15],[150,-15],[151,-15],[152,-15],[153,-15],[154,-15],[155,-15],[156,-15],[157,-15],[158,-15],[159,-15],[160,-15],[161,-15],[162,-15],[163,-15],[164,-15],[165,-15],[166,-15],[167,-15],[168,-15],[169,-15],[170,-15],[171,-15],[172,-15],[173,-15],[174,-15],[175,-15],[176,-15],[177,-15],[178,-15],[179,-15],[180,-15]]}},{"type":"Feature","properties":{"type":"parallel","value":0},"geometry":{"type":"LineString","coordinates":[[-180,0],[-179,0],[-178,0],[-177,0],[-176,0],[-175,0],[-174,0],[-173,0],[-172,0],[-171,0],[-170,0],[-169,0],[-168,0],[-167,0],[-166,0],[-165,0],[-164,0],[-163,0],[-162,0],[-161,0],[-160,0],[-159,0],[-158,0],[-157,0],[-156,0],[-155,0],[-154,0],[-153,0],[-152,0],[-151,0],[-150,0],[-149,0],[-148,0],[-147,0],[-146,0],[-145,0],[-144,0],[-143,0],[-142,0],[-141,0],[-140,0],[-139,0],[-138,0],[-137,0],[-136,0],[-135,0],[-134,0],[-133,0],[-132,0],[-131,0],[-130,0],[-129,0],[-128,0],[-127,0],[-126,0],[-125,0],[-124,0],[-123,0],[-122,0],[-121,0],[-120,0],[-119,0],[-118,0],[-117,0],[-116,0],[-115,0],[-114,0],[-113,0],[-112,0],[-111,0],[-110,0],[-109,0],[-108,0],[-107,0],[-106,0],[-105,0],[-104,0],[-103,0],[-102,0],[-101,0],[-100,0],[-99,0],[-98,0],[-97,0],[-96,0],[-95,0],[-94,0],[-93,0],[-92,0],[-91,0],[-90,0],[-89,0],[-88,0],[-87,0],[-86,0],[-85,0],[-84,0],[-83,0],[-82,0],[-81,0],[-80,0],[-79,0],[-78,0],[-77,0],[-76,0],[-75,0],[-74,0],[-73,0],[-72,0],[-71,0],[-70,0],[-69,0],[-68,0],[-67,0],[-66,0],[-65,0],[-64,0],[-63,0],[-62,0],[-61,0],[-60,0],[-59,0],[-58,0],[-57,0],[-56,0],[-55,0],[-54,0],[-53,0],[-52,0],[-51,0],[-50,0],[-49,0],[-48,0],[-47,0],[-46,0],[-45,0],[-44,0],[-43,0],[-42,0],[-41,0],[-40,0],[-39,0],[-38,0],[-37,0],[-36,0],[-35,0],[-34,0],[-33,0],[-32,0],[-31,0],[-30,0],[-29,0],[-28,0],[-27,0],[-26,0],[-25,0],[-24,0],[-23,0],[-22,0],[-21,0],[-20,0],[-19,0],[-18,0],[-17,0],[-16,0],[-15,0],[-14,0],[-13,0],[-12,0],[-11,0],[-10,0],[-9,0],[-8,0],[-7,0],[-6,0],[-5,0],[-4,0],[-3,0],[-2,0],[-1,0],[0,0],[1,0],[2,0],[3,0],[4,0],[5,0],[6,0],[7,0],[8,0],[9,0],[10,0],[11,0],[12,0],[13,0],[14,0],[15,0],[16,0],[17,0],[18,0],[19,0],[20,0],[21,0],[22,0],[23,0],[24,0],[25,0],[26,0],[27,0],[28,0],[29,0],[30,0],[31,0],[32,0],[33,0],[34,0],[35,0],[36,0],[37,0],[38,0],[39,0],[40,0],[41,0],[42,0],[43,0],[44,0],[45,0],[46,0],[47,0],[48,0],[49,0],[50,0],[51,0],[52,0],[53,0],[54,0],[55,0],[56,0],[57,0],[58,0],[59,0],[60,0],[61,0],[62,0],[63,0],[64,0],[65,0],[66,0],[67,0],[68,0],[69,0],[70,0],[71,0],[72,0],[73,0],[74,0],[75,0],[76,0],[77,0],[78,0],[79,0],[80,0],[81,0],[82,0],[83,0],[84,0],[85,0],[86,0],[87,0],[88,0],[89,0],[90,0],[91,0],[92,0],[93,0],[94,0],[95,0],[96,0],[97,0],[98,0],[99,0],[100,0],[101,0],[102,0],[103,0],[104,0],[105,0],[106,0],[107,0],[108,0],[109,0],[110,0],[111,0],[112,0],[113,0],[114,0],[115,0],[116,0],[117,0],[118,0],[119,0],[120,0],[121,0],[122,0],[123,0],[124,0],[125,0],[126,0],[127,0],[128,0],[129,0],[130,0],[131,0],[132,0],[133,0],[134,0],[135,0],[136,0],[137,0],[138,0],[139,0],[140,0],[141,0],[142,0],[143,0],[144,0],[145,0],[146,0],[147,0],[148,0],[149,0],[150,0],[151,0],[152,0],[153,0],[154,0],[155,0],[156,0],[157,0],[158,0],[159,0],[160,0],[161,0],[162,0],[163,0],[164,0],[165,0],[166,0],[167,0],[168,0],[169,0],[170,0],[171,0],[172,0],[173,0],[174,0],[175,0],[176,0],[177,0],[178,0],[179,0],[180,0]]}},{"type":"Feature","properties":{"type":"parallel","value":15},"geometry":{"type":"LineString","coordinates":[[-180,15],[-179,15],[-178,15],[-177,15],[-176,15],[-175,15],[-174,15],[-173,15],[-172,15],[-171,15],[-170,15],[-169,15],[-168,15],[-167,15],[-166,15],[-165,15],[-164,15],[-163,15],[-162,15],[-161,15],[-160,15],[-159,15],[-158,15],[-157,15],[-156,15],[-155,15],[-154,15],[-153,15],[-152,15],[-151,15],[-150,15],[-149,15],[-148,15],[-147,15],[-146,15],[-145,15],[-144,15],[-143,15],[-142,15],[-141,15],[-140,15],[-139,15],[-138,15],[-137,15],[-136,15],[-135,15],[-134,15],[-133,15],[-132,15],[-131,15],[-130,15],[-129,15],[-128,15],[-127,15],[-126,15],[-125,15],[-124,15],[-123,15],[-122,15],[-121,15],[-120,15],[-119,15],[-118,15],[-117,15],[-116,15],[-115,15],[-114,15],[-113,15],[-112,15],[-111,15],[-110,15],[-109,15],[-108,15],[-107,15],[-106,15],[-105,15],[-104,15],[-103,15],[-102,15],[-101,15],[-100,15],[-99,15],[-98,15],[-97,15],[-96,15],[-95,15],[-94,15],[-93,15],[-92,15],[-91,15],[-90,15],[-89,15],[-88,15],[-87,15],[-86,15],[-85,15],[-84,15],[-83,15],[-82,15],[-81,15],[-80,15],[-79,15],[-78,15],[-77,15],[-76,15],[-75,15],[-74,15],[-73,15],[-72,15],[-71,15],[-70,15],[-69,15],[-68,15],[-67,15],[-66,15],[-65,15],[-64,15],[-63,15],[-62,15],[-61,15],[-60,15],[-59,15],[-58,15],[-57,15],[-56,15],[-55,15],[-54,15],[-53,15],[-52,15],[-51,15],[-50,15],[-49,15],[-48,15],[-47,15],[-46,15],[-45,15],[-44,15],[-43,15],[-42,15],[-41,15],[-40,15],[-39,15],[-38,15],[-37,15],[-36,15],[-35,15],[-34,15],[-33,15],[-32,15],[-31,15],[-30,15],[-29,15],[-28,15],[-27,15],[-26,15],[-25,15],[-24,15],[-23,15],[-22,15],[-21,15],[-20,15],[-19,15],[-18,15],[-17,15],[-16,15],[-15,15],[-14,15],[-13,15],[-12,15],[-11,15],[-10,15],[-9,15],[-8,15],[-7,15],[-6,15],[-5,15],[-4,15],[-3,15],[-2,15],[-1,15],[0,15],[1,15],[2,15],[3,15],[4,15],[5,15],[6,15],[7,15],[8,15],[9,15],[10,15],[11,15],[12,15],[13,15],[14,15],[15,15],[16,15],[17,15],[18,15],[19,15],[20,15],[21,15],[22,15],[23,15],[24,15],[25,15],[26,15],[27,15],[28,15],[29,15],[30,15],[31,15],[32,15],[33,15],[34,15],[35,15],[36,15],[37,15],[38,15],[39,15],[40,15],[41,15],[42,15],[43,15],[44,15],[45,15],[46,15],[47,15],[48,15],[49,15],[50,15],[51,15],[52,15],[53,15],[54,15],[55,15],[56,15],[57,15],[58,15],[59,15],[60,15],[61,15],[62,15],[63,15],[64,15],[65,15],[66,15],[67,15],[68,15],[69,15],[70,15],[71,15],[72,15],[73,15],[74,15],[75,15],[76,15],[77,15],[78,15],[79,15],[80,15],[81,15],[82,15],[83,15],[84,15],[85,15],[86,15],[87,15],[88,15],[89,15],[90,15],[91,15],[92,15],[93,15],[94,15],[95,15],[96,15],[97,15],[98,15],[99,15],[100,15],[101,15],[102,15],[103,15],[104,15],[105,15],[106,15],[107,15],[108,15],[109,15],[110,15],[111,15],[112,15],[113,15],[114,15],[115,15],[116,15],[117,15],[118,15],[119,15],[120,15],[121,15],[122,15],[123,15],[124,15],[125,15],[126,15],[127,15],[128,15],[129,15],[130,15],[131,15],[132,15],[133,15],[134,15],[135,15],[136,15],[137,15],[138,15],[139,15],[140,15],[141,15],[142,15],[143,15],[144,15],[145,15],[146,15],[147,15],[148,15],[149,15],[150,15],[151,15],[152,15],[153,15],[154,15],[155,15],[156,15],[157,15],[158,15],[159,15],[160,15],[161,15],[162,15],[163,15],[164,15],[165,15],[166,15],[167,15],[168,15],[169,15],[170,15],[171,15],[172,15],[173,15],[174,15],[175,15],[176,15],[177,15],[178,15],[179,15],[180,15]]}},{"type":"Feature","properties":{"type":"parallel","value":30},"geometry":{"type":"LineString","coordinates":[[-180,30],[-179,30],[-178,30],[-177,30],[-176,30],[-175,30],[-174,30],[-173,30],[-172,30],[-171,30],[-170,30],[-169,30],[-168,30],[-167,30],[-166,30],[-165,30],[-164,30],[-163,30],[-162,30],[-161,30],[-160,30],[-159,30],[-158,30],[-157,30],[-156,30],[-155,30],[-154,30],[-153,30],[-152,30],[-151,30],[-150,30],[-149,30],[-148,30],[-147,30],[-146,30],[-145,30],[-144,30],[-143,30],[-142,30],[-141,30],[-140,30],[-139,30],[-138,30],[-137,30],[-136,30],[-135,30],[-134,30],[-133,30],[-132,30],[-131,30],[-130,30],[-129,30],[-128,30],[-127,30],[-126,30],[-125,30],[-124,30],[-123,30],[-122,30],[-121,30],[-120,30],[-119,30],[-118,30],[-117,30],[-116,30],[-115,30],[-114,30],[-113,30],[-112,30],[-111,30],[-110,30],[-109,30],[-108,30],[-107,30],[-106,30],[-105,30],[-104,30],[-103,30],[-102,30],[-101,30],[-100,30],[-99,30],[-98,30],[-97,30],[-96,30],[-95,30],[-94,30],[-93,30],[-92,30],[-91,30],[-90,30],[-89,30],[-88,30],[-87,30],[-86,30],[-85,30],[-84,30],[-83,30],[-82,30],[-81,30],[-80,30],[-79,30],[-78,30],[-77,30],[-76,30],[-75,30],[-74,30],[-73,30],[-72,30],[-71,30],[-70,30],[-69,30],[-68,30],[-67,30],[-66,30],[-65,30],[-64,30],[-63,30],[-62,30],[-61,30],[-60,30],[-59,30],[-58,30],[-57,30],[-56,30],[-55,30],[-54,30],[-53,30],[-52,30],[-51,30],[-50,30],[-49,30],[-48,30],[-47,30],[-46,30],[-45,30],[-44,30],[-43,30],[-42,30],[-41,30],[-40,30],[-39,30],[-38,30],[-37,30],[-36,30],[-35,30],[-34,30],[-33,30],[-32,30],[-31,30],[-30,30],[-29,30],[-28,30],[-27,30],[-26,30],[-25,30],[-24,30],[-23,30],[-22,30],[-21,30],[-20,30],[-19,30],[-18,30],[-17,30],[-16,30],[-15,30],[-14,30],[-13,30],[-12,30],[-11,30],[-10,30],[-9,30],[-8,30],[-7,30],[-6,30],[-5,30],[-4,30],[-3,30],[-2,30],[-1,30],[0,30],[1,30],[2,30],[3,30],[4,30],[5,30],[6,30],[7,30],[8,30],[9,30],[10,30],[11,30],[12,30],[13,30],[14,30],[15,30],[16,30],[17,30],[18,30],[19,30],[20,30],[21,30],[22,30],[23,30],[24,30],[25,30],[26,30],[27,30],[28,30],[29,30],[30,30],[31,30],[32,30],[33,30],[34,30],[35,30],[36,30],[37,30],[38,30],[39,30],[40,30],[41,30],[42,30],[43,30],[44,30],[45,30],[46,30],[47,30],[48,30],[49,30],[50,30],[51,30],[52,30],[53,30],[54,30],[55,30],[56,30],[57,30],[58,30],[59,30],[60,30],[61,30],[62,30],[63,30],[64,30],[65,30],[66,30],[67,30],[68,30],[69,30],[70,30],[71,30],[72,30],[73,30],[74,30],[75,30],[76,30],[77,30],[78,30],[79,30],[80,30],[81,30],[82,30],[83,30],[84,30],[85,30],[86,30],[87,30],[88,30],[89,30],[90,30],[91,30],[92,30],[93,30],[94,30],[95,30],[96,30],[97,30],[98,30],[99,30],[100,30],[101,30],[102,30],[103,30],[104,30],[105,30],[106,30],[107,30],[108,30],[109,30],[110,30],[111,30],[112,30],[113,30],[114,30],[115,30],[116,30],[117,30],[118,30],[119,30],[120,30],[121,30],[122,30],[123,30],[124,30],[125,30],[126,30],[127,30],[128,30],[129,30],[130,30],[131,30],[132,30],[133,30],[134,30],[135,30],[136,30],[137,30],[138,30],[139,30],[140,30],[141,30],[142,30],[143,30],[144,30],[145,30],[146,30],[147,30],[148,30],[149,30],[150,30],[151,30],[152,30],[153,30],[154,30],[155,30],[156,30],[157,30],[158,30],[159,30],[160,30],[161,30],[162,30],[163,30],[164,30],[165,30],[166,30],[167,30],[168,30],[169,30],[170,30],[171,30],[172,30],[173,30],[174,30],[175,30],[176,30],[177,30],[178,30],[179,30],[180,30]]}},{"type":"Feature","properties":{"type":"parallel","value":45},"geometry":{"type":"LineString","coordinates":[[-180,45],[-179,45],[-178,45],[-177,45],[-176,45],[-175,45],[-174,45],[-173,45],[-172,45],[-171,45],[-170,45],[-169,45],[-168,45],[-167,45],[-166,45],[-165,45],[-164,45],[-163,45],[-162,45],[-161,45],[-160,45],[-159,45],[-158,45],[-157,45],[-156,45],[-155,45],[-154,45],[-153,45],[-152,45],[-151,45],[-150,45],[-149,45],[-148,45],[-147,45],[-146,45],[-145,45],[-144,45],[-143,45],[-142,45],[-141,45],[-140,45],[-139,45],[-138,45],[-137,45],[-136,45],[-135,45],[-134,45],[-133,45],[-132,45],[-131,45],[-130,45],[-129,45],[-128,45],[-127,45],[-126,45],[-125,45],[-124,45],[-123,45],[-122,45],[-121,45],[-120,45],[-119,45],[-118,45],[-117,45],[-116,45],[-115,45],[-114,45],[-113,45],[-112,45],[-111,45],[-110,45],[-109,45],[-108,45],[-107,45],[-106,45],[-105,45],[-104,45],[-103,45],[-102,45],[-101,45],[-100,45],[-99,45],[-98,45],[-97,45],[-96,45],[-95,45],[-94,45],[-93,45],[-92,45],[-91,45],[-90,45],[-89,45],[-88,45],[-87,45],[-86,45],[-85,45],[-84,45],[-83,45],[-82,45],[-81,45],[-80,45],[-79,45],[-78,45],[-77,45],[-76,45],[-75,45],[-74,45],[-73,45],[-72,45],[-71,45],[-70,45],[-69,45],[-68,45],[-67,45],[-66,45],[-65,45],[-64,45],[-63,45],[-62,45],[-61,45],[-60,45],[-59,45],[-58,45],[-57,45],[-56,45],[-55,45],[-54,45],[-53,45],[-52,45],[-51,45],[-50,45],[-49,45],[-48,45],[-47,45],[-46,45],[-45,45],[-44,45],[-43,45],[-42,45],[-41,45],[-40,45],[-39,45],[-38,45],[-37,45],[-36,45],[-35,45],[-34,45],[-33,45],[-32,45],[-31,45],[-30,45],[-29,45],[-28,45],[-27,45],[-26,45],[-25,45],[-24,45],[-23,45],[-22,45],[-21,45],[-20,45],[-19,45],[-18,45],[-17,45],[-16,45],[-15,45],[-14,45],[-13,45],[-12,45],[-11,45],[-10,45],[-9,45],[-8,45],[-7,45],[-6,45],[-5,45],[-4,45],[-3,45],[-2,45],[-1,45],[0,45],[1,45],[2,45],[3,45],[4,45],[5,45],[6,45],[7,45],[8,45],[9,45],[10,45],[11,45],[12,45],[13,45],[14,45],[15,45],[16,45],[17,45],[18,45],[19,45],[20,45],[21,45],[22,45],[23,45],[24,45],[25,45],[26,45],[27,45],[28,45],[29,45],[30,45],[31,45],[32,45],[33,45],[34,45],[35,45],[36,45],[37,45],[38,45],[39,45],[40,45],[41,45],[42,45],[43,45],[44,45],[45,45],[46,45],[47,45],[48,45],[49,45],[50,45],[51,45],[52,45],[53,45],[54,45],[55,45],[56,45],[57,45],[58,45],[59,45],[60,45],[61,45],[62,45],[63,45],[64,45],[65,45],[66,45],[67,45],[68,45],[69,45],[70,45],[71,45],[72,45],[73,45],[74,45],[75,45],[76,45],[77,45],[78,45],[79,45],[80,45],[81,45],[82,45],[83,45],[84,45],[85,45],[86,45],[87,45],[88,45],[89,45],[90,45],[91,45],[92,45],[93,45],[94,45],[95,45],[96,45],[97,45],[98,45],[99,45],[100,45],[101,45],[102,45],[103,45],[104,45],[105,45],[106,45],[107,45],[108,45],[109,45],[110,45],[111,45],[112,45],[113,45],[114,45],[115,45],[116,45],[117,45],[118,45],[119,45],[120,45],[121,45],[122,45],[123,45],[124,45],[125,45],[126,45],[127,45],[128,45],[129,45],[130,45],[131,45],[132,45],[133,45],[134,45],[135,45],[136,45],[137,45],[138,45],[139,45],[140,45],[141,45],[142,45],[143,45],[144,45],[145,45],[146,45],[147,45],[148,45],[149,45],[150,45],[151,45],[152,45],[153,45],[154,45],[155,45],[156,45],[157,45],[158,45],[159,45],[160,45],[161,45],[162,45],[163,45],[164,45],[165,45],[166,45],[167,45],[168,45],[169,45],[170,45],[171,45],[172,45],[173,45],[174,45],[175,45],[176,45],[177,45],[178,45],[179,45],[180,45]]}},{"type":"Feature","properties":{"type":"parallel","value":60},"geometry":{"type":"LineString","coordinates":[[-180,60],[-179,60],[-178,60],[-177,60],[-176,60],[-175,60],[-174,60],[-173,60],[-172,60],[-171,60],[-170,60],[-169,60],[-168,60],[-167,60],[-166,60],[-165,60],[-164,60],[-163,60],[-162,60],[-161,60],[-160,60],[-159,60],[-158,60],[-157,60],[-156,60],[-155,60],[-154,60],[-153,60],[-152,60],[-151,60],[-150,60],[-149,60],[-148,60],[-147,60],[-146,60],[-145,60],[-144,60],[-143,60],[-142,60],[-141,60],[-140,60],[-139,60],[-138,60],[-137,60],[-136,60],[-135,60],[-134,60],[-133,60],[-132,60],[-131,60],[-130,60],[-129,60],[-128,60],[-127,60],[-126,60],[-125,60],[-124,60],[-123,60],[-122,60],[-121,60],[-120,60],[-119,60],[-118,60],[-117,60],[-116,60],[-115,60],[-114,60],[-113,60],[-112,60],[-111,60],[-110,60],[-109,60],[-108,60],[-107,60],[-106,60],[-105,60],[-104,60],[-103,60],[-102,60],[-101,60],[-100,60],[-99,60],[-98,60],[-97,60],[-96,60],[-95,60],[-94,60],[-93,60],[-92,60],[-91,60],[-90,60],[-89,60],[-88,60],[-87,60],[-86,60],[-85,60],[-84,60],[-83,60],[-82,60],[-81,60],[-80,60],[-79,60],[-78,60],[-77,60],[-76,60],[-75,60],[-74,60],[-73,60],[-72,60],[-71,60],[-70,60],[-69,60],[-68,60],[-67,60],[-66,60],[-65,60],[-64,60],[-63,60],[-62,60],[-61,60],[-60,60],[-59,60],[-58,60],[-57,60],[-56,60],[-55,60],[-54,60],[-53,60],[-52,60],[-51,60],[-50,60],[-49,60],[-48,60],[-47,60],[-46,60],[-45,60],[-44,60],[-43,60],[-42,60],[-41,60],[-40,60],[-39,60],[-38,60],[-37,60],[-36,60],[-35,60],[-34,60],[-33,60],[-32,60],[-31,60],[-30,60],[-29,60],[-28,60],[-27,60],[-26,60],[-25,60],[-24,60],[-23,60],[-22,60],[-21,60],[-20,60],[-19,60],[-18,60],[-17,60],[-16,60],[-15,60],[-14,60],[-13,60],[-12,60],[-11,60],[-10,60],[-9,60],[-8,60],[-7,60],[-6,60],[-5,60],[-4,60],[-3,60],[-2,60],[-1,60],[0,60],[1,60],[2,60],[3,60],[4,60],[5,60],[6,60],[7,60],[8,60],[9,60],[10,60],[11,60],[12,60],[13,60],[14,60],[15,60],[16,60],[17,60],[18,60],[19,60],[20,60],[21,60],[22,60],[23,60],[24,60],[25,60],[26,60],[27,60],[28,60],[29,60],[30,60],[31,60],[32,60],[33,60],[34,60],[35,60],[36,60],[37,60],[38,60],[39,60],[40,60],[41,60],[42,60],[43,60],[44,60],[45,60],[46,60],[47,60],[48,60],[49,60],[50,60],[51,60],[52,60],[53,60],[54,60],[55,60],[56,60],[57,60],[58,60],[59,60],[60,60],[61,60],[62,60],[63,60],[64,60],[65,60],[66,60],[67,60],[68,60],[69,60],[70,60],[71,60],[72,60],[73,60],[74,60],[75,60],[76,60],[77,60],[78,60],[79,60],[80,60],[81,60],[82,60],[83,60],[84,60],[85,60],[86,60],[87,60],[88,60],[89,60],[90,60],[91,60],[92,60],[93,60],[94,60],[95,60],[96,60],[97,60],[98,60],[99,60],[100,60],[101,60],[102,60],[103,60],[104,60],[105,60],[106,60],[107,60],[108,60],[109,60],[110,60],[111,60],[112,60],[113,60],[114,60],[115,60],[116,60],[117,60],[118,60],[119,60],[120,60],[121,60],[122,60],[123,60],[124,60],[125,60],[126,60],[127,60],[128,60],[129,60],[130,60],[131,60],[132,60],[133,60],[134,60],[135,60],[136,60],[137,60],[138,60],[139,60],[140,60],[141,60],[142,60],[143,60],[144,60],[145,60],[146,60],[147,60],[148,60],[149,60],[150,60],[151,60],[152,60],[153,60],[154,60],[155,60],[156,60],[157,60],[158,60],[159,60],[160,60],[161,60],[162,60],[163,60],[164,60],[165,60],[166,60],[167,60],[168,60],[169,60],[170,60],[171,60],[172,60],[173,60],[174,60],[175,60],[176,60],[177,60],[178,60],[179,60],[180,60]]}},{"type":"Feature","properties":{"type":"parallel","value":75},"geometry":{"type":"LineString","coordinates":[[-180,75],[-179,75],[-178,75],[-177,75],[-176,75],[-175,75],[-174,75],[-173,75],[-172,75],[-171,75],[-170,75],[-169,75],[-168,75],[-167,75],[-166,75],[-165,75],[-164,75],[-163,75],[-162,75],[-161,75],[-160,75],[-159,75],[-158,75],[-157,75],[-156,75],[-155,75],[-154,75],[-153,75],[-152,75],[-151,75],[-150,75],[-149,75],[-148,75],[-147,75],[-146,75],[-145,75],[-144,75],[-143,75],[-142,75],[-141,75],[-140,75],[-139,75],[-138,75],[-137,75],[-136,75],[-135,75],[-134,75],[-133,75],[-132,75],[-131,75],[-130,75],[-129,75],[-128,75],[-127,75],[-126,75],[-125,75],[-124,75],[-123,75],[-122,75],[-121,75],[-120,75],[-119,75],[-118,75],[-117,75],[-116,75],[-115,75],[-114,75],[-113,75],[-112,75],[-111,75],[-110,75],[-109,75],[-108,75],[-107,75],[-106,75],[-105,75],[-104,75],[-103,75],[-102,75],[-101,75],[-100,75],[-99,75],[-98,75],[-97,75],[-96,75],[-95,75],[-94,75],[-93,75],[-92,75],[-91,75],[-90,75],[-89,75],[-88,75],[-87,75],[-86,75],[-85,75],[-84,75],[-83,75],[-82,75],[-81,75],[-80,75],[-79,75],[-78,75],[-77,75],[-76,75],[-75,75],[-74,75],[-73,75],[-72,75],[-71,75],[-70,75],[-69,75],[-68,75],[-67,75],[-66,75],[-65,75],[-64,75],[-63,75],[-62,75],[-61,75],[-60,75],[-59,75],[-58,75],[-57,75],[-56,75],[-55,75],[-54,75],[-53,75],[-52,75],[-51,75],[-50,75],[-49,75],[-48,75],[-47,75],[-46,75],[-45,75],[-44,75],[-43,75],[-42,75],[-41,75],[-40,75],[-39,75],[-38,75],[-37,75],[-36,75],[-35,75],[-34,75],[-33,75],[-32,75],[-31,75],[-30,75],[-29,75],[-28,75],[-27,75],[-26,75],[-25,75],[-24,75],[-23,75],[-22,75],[-21,75],[-20,75],[-19,75],[-18,75],[-17,75],[-16,75],[-15,75],[-14,75],[-13,75],[-12,75],[-11,75],[-10,75],[-9,75],[-8,75],[-7,75],[-6,75],[-5,75],[-4,75],[-3,75],[-2,75],[-1,75],[0,75],[1,75],[2,75],[3,75],[4,75],[5,75],[6,75],[7,75],[8,75],[9,75],[10,75],[11,75],[12,75],[13,75],[14,75],[15,75],[16,75],[17,75],[18,75],[19,75],[20,75],[21,75],[22,75],[23,75],[24,75],[25,75],[26,75],[27,75],[28,75],[29,75],[30,75],[31,75],[32,75],[33,75],[34,75],[35,75],[36,75],[37,75],[38,75],[39,75],[40,75],[41,75],[42,75],[43,75],[44,75],[45,75],[46,75],[47,75],[48,75],[49,75],[50,75],[51,75],[52,75],[53,75],[54,75],[55,75],[56,75],[57,75],[58,75],[59,75],[60,75],[61,75],[62,75],[63,75],[64,75],[65,75],[66,75],[67,75],[68,75],[69,75],[70,75],[71,75],[72,75],[73,75],[74,75],[75,75],[76,75],[77,75],[78,75],[79,75],[80,75],[81,75],[82,75],[83,75],[84,75],[85,75],[86,75],[87,75],[88,75],[89,75],[90,75],[91,75],[92,75],[93,75],[94,75],[95,75],[96,75],[97,75],[98,75],[99,75],[100,75],[101,75],[102,75],[103,75],[104,75],[105,75],[106,75],[107,75],[108,75],[109,75],[110,75],[111,75],[112,75],[113,75],[114,75],[115,75],[116,75],[117,75],[118,75],[119,75],[120,75],[121,75],[122,75],[123,75],[124,75],[125,75],[126,75],[127,75],[128,75],[129,75],[130,75],[131,75],[132,75],[133,75],[134,75],[135,75],[136,75],[137,75],[138,75],[139,75],[140,75],[141,75],[142,75],[143,75],[144,75],[145,75],[146,75],[147,75],[148,75],[149,75],[150,75],[151,75],[152,75],[153,75],[154,75],[155,75],[156,75],[157,75],[158,75],[159,75],[160,75],[161,75],[162,75],[163,75],[164,75],[165,75],[166,75],[167,75],[168,75],[169,75],[170,75],[171,75],[172,75],[173,75],[174,75],[175,75],[176,75],[177,75],[178,75],[179,75],[180,75]]}},{"type":"Feature","properties":{"type":"parallel","value":90},"geometry":{"type":"LineString","coordinates":[[-180,90],[-179,90],[-178,90],[-177,90],[-176,90],[-175,90],[-174,90],[-173,90],[-172,90],[-171,90],[-170,90],[-169,90],[-168,90],[-167,90],[-166,90],[-165,90],[-164,90],[-163,90],[-162,90],[-161,90],[-160,90],[-159,90],[-158,90],[-157,90],[-156,90],[-155,90],[-154,90],[-153,90],[-152,90],[-151,90],[-150,90],[-149,90],[-148,90],[-147,90],[-146,90],[-145,90],[-144,90],[-143,90],[-142,90],[-141,90],[-140,90],[-139,90],[-138,90],[-137,90],[-136,90],[-135,90],[-134,90],[-133,90],[-132,90],[-131,90],[-130,90],[-129,90],[-128,90],[-127,90],[-126,90],[-125,90],[-124,90],[-123,90],[-122,90],[-121,90],[-120,90],[-119,90],[-118,90],[-117,90],[-116,90],[-115,90],[-114,90],[-113,90],[-112,90],[-111,90],[-110,90],[-109,90],[-108,90],[-107,90],[-106,90],[-105,90],[-104,90],[-103,90],[-102,90],[-101,90],[-100,90],[-99,90],[-98,90],[-97,90],[-96,90],[-95,90],[-94,90],[-93,90],[-92,90],[-91,90],[-90,90],[-89,90],[-88,90],[-87,90],[-86,90],[-85,90],[-84,90],[-83,90],[-82,90],[-81,90],[-80,90],[-79,90],[-78,90],[-77,90],[-76,90],[-75,90],[-74,90],[-73,90],[-72,90],[-71,90],[-70,90],[-69,90],[-68,90],[-67,90],[-66,90],[-65,90],[-64,90],[-63,90],[-62,90],[-61,90],[-60,90],[-59,90],[-58,90],[-57,90],[-56,90],[-55,90],[-54,90],[-53,90],[-52,90],[-51,90],[-50,90],[-49,90],[-48,90],[-47,90],[-46,90],[-45,90],[-44,90],[-43,90],[-42,90],[-41,90],[-40,90],[-39,90],[-38,90],[-37,90],[-36,90],[-35,90],[-34,90],[-33,90],[-32,90],[-31,90],[-30,90],[-29,90],[-28,90],[-27,90],[-26,90],[-25,90],[-24,90],[-23,90],[-22,90],[-21,90],[-20,90],[-19,90],[-18,90],[-17,90],[-16,90],[-15,90],[-14,90],[-13,90],[-12,90],[-11,90],[-10,90],[-9,90],[-8,90],[-7,90],[-6,90],[-5,90],[-4,90],[-3,90],[-2,90],[-1,90],[0,90],[1,90],[2,90],[3,90],[4,90],[5,90],[6,90],[7,90],[8,90],[9,90],[10,90],[11,90],[12,90],[13,90],[14,90],[15,90],[16,90],[17,90],[18,90],[19,90],[20,90],[21,90],[22,90],[23,90],[24,90],[25,90],[26,90],[27,90],[28,90],[29,90],[30,90],[31,90],[32,90],[33,90],[34,90],[35,90],[36,90],[37,90],[38,90],[39,90],[40,90],[41,90],[42,90],[43,90],[44,90],[45,90],[46,90],[47,90],[48,90],[49,90],[50,90],[51,90],[52,90],[53,90],[54,90],[55,90],[56,90],[57,90],[58,90],[59,90],[60,90],[61,90],[62,90],[63,90],[64,90],[65,90],[66,90],[67,90],[68,90],[69,90],[70,90],[71,90],[72,90],[73,90],[74,90],[75,90],[76,90],[77,90],[78,90],[79,90],[80,90],[81,90],[82,90],[83,90],[84,90],[85,90],[86,90],[87,90],[88,90],[89,90],[90,90],[91,90],[92,90],[93,90],[94,90],[95,90],[96,90],[97,90],[98,90],[99,90],[100,90],[101,90],[102,90],[103,90],[104,90],[105,90],[106,90],[107,90],[108,90],[109,90],[110,90],[111,90],[112,90],[113,90],[114,90],[115,90],[116,90],[117,90],[118,90],[119,90],[120,90],[121,90],[122,90],[123,90],[124,90],[125,90],[126,90],[127,90],[128,90],[129,90],[130,90],[131,90],[132,90],[133,90],[134,90],[135,90],[136,90],[137,90],[138,90],[139,90],[140,90],[141,90],[142,90],[143,90],[144,90],[145,90],[146,90],[147,90],[148,90],[149,90],[150,90],[151,90],[152,90],[153,90],[154,90],[155,90],[156,90],[157,90],[158,90],[159,90],[160,90],[161,90],[162,90],[163,90],[164,90],[165,90],[166,90],[167,90],[168,90],[169,90],[170,90],[171,90],[172,90],[173,90],[174,90],[175,90],[176,90],[177,90],[178,90],[179,90],[180,90]]}}]}